id,name,address,city,state,code,country,phone,website
1,(512) Brewing Company,"407 Radam, F200",Austin,Texas,78745,United States,512.707.2337,http://512brewing.com/
2,21st Amendment Brewery Cafe,563 Second Street,San Francisco,California,94107,United States,1-415-369-0900,http://www.21st-amendment.com/
3,3 Fonteinen Brouwerij Ambachtelijke Geuzestekerij,Hoogstraat 2A,Beersel,Vlaams Brabant,,Belgium,32-02-/-306-71-03,http://www.3fonteinen.be/index.htm
4,Aass Brewery,Ole Steensgt. 10 Postboks 1530,Drammen,,,Norway,47-32-26-60-00,http://www.aass.no
5,Abbaye de Leffe,Dinant,Dinant,Namur,,Belgium,,
6,Abbaye de Maredsous,"Rue de Maredsous, 11",Dene,Namur,,Belgium,32-(0)82-69-82-11,http://www.maredsous10.be/
7,Abbaye Notre Dame du St Remy,Rue de l'Abbaye 8,Rochefort,Namur,,Belgium,32-084/22.01.47,
8,Abbey Wright Brewing/Valley Inn,204 Valley Street,Williamsport,Pennsylvania,17702,United States,570.326.3383,http://www.valleyinnonline.com/
9,Aberdeen Brewing,210 Aberdeen Dr.,Valparaiso,Indiana,,United States,(219) 548-3300,
10,Abita Brewing Company,PO Box 1510,Abita Springs,Louisiana,70420,United States,800-737-2311,http://www.abita.com/
11,Adnams & Co.,IP18 6JW,Southwold,Suffolk,,United Kingdom,44-(01502)-727200,http://www.adnams.co.uk
12,Affligem Brouwerij,,Opwijk,,,Belgium,052/35 83 57,http://www.affligembeer.be/
13,Agassiz Brewing,PO Box 42008,Winnipeg,Manitoba,0,Canada,1-204-233-4677,
14,Aksarben Brewing (BOP),11337 Davenport St.,Omaha,Nebraska,68130,United States,,
15,Aktienbrauerei Kaufbeuren,Hohe Buchleuthe 3,Kaufbeuren,Bayern,,Germany,49-(0)8341-/-430430,http://www.aktien-brauerei.de/
16,Alameda Brewhouse,4765 NE Fremont,Portland,Oregon,97213,United States,1-503-460-9025,
17,Alaskan Brewing,5429 Shaune Drive,Juneau,Alaska,99801,United States,1-907-780-5866,http://www.alaskanbeer.com/
18,Alaus Darykla Kalnapilis,Taikos aleja 1,Panevys,,,Lithuania,370-45-505223,
19,Aldaris,Tvaika iela 44,Rga,,,Latvia,371-70-23-200,
20,Ale Asylum,3698 Kinsman Blvd,Madison,Wisconsin,53704,United States,6086633926,http://www.aleasylum.com/
21,AleSmith Brewing,9368 Cabot Drive,San Diego,California,92126,United States,1-858-549-9888,http://alesmith.com/
22,Ali`i Brewing,,Honolulu,Hawaii,,United States,,
23,Allagash Brewing,100 Industrial Way,Portland,Maine,4103,United States,1-800-330-5385,http://www.allagash.com/
25,Allentown Brew Works,814 W Hamilton St,Allentown,Pennsylvania,18101,United States,610.433.7777,http://www.thebrewworks.com/allentown-brewworks/
26,Allguer Brauhaus AG Kempten,Beethovenstrae 7,Kempten,Bayern,,Germany,49-(0)831-/-2050-0,
27,"Allguer Brauhaus AG Kempten, Brausttte Leuterschach",Schwendener Strae 18,Marktoberdorf,Bayern,,Germany,49-(0)8342-/-9647-0,
28,Alltech's Lexington Brewing Company,401 Cross Street,Lexington,Kentucky,40508,United States,1-859-887-3406,http://www.kentuckyale.com/kentuckyale/Index.html
29,Alpine Beer Company,2351 Alpine Boulevard,Alpine,California,91901,United States,1-619-445-2337,http://www.alpinebeerco.com/
30,Alpirsbacher Klosterbru,Marktplatz 1,Alpirsbach,Baden-Wrttemberg,,Germany,49-(0)7444-/-67-0,
31,Alvinne Picobrouwerij,Oostrozebekestraat 114,Ingelmunster,West-Vlaanderen,,Belgium,32-051-/-30-55-17,
32,America's Brewing,205 North Broadway,Aurora,Illinois,60505,United States,1-630-264-2739,
33,American River Brewing,,Auburn,California,,United States,,
34,Amerisports Brew Pub,8201 NE Birmingham Road,Kansas City,Missouri,64161,United States,1-816-414-7000,
35,Amherst Brewing Company,24 North Pleasant Street,Amherst,Massachusetts,1002,United States,413-253-4400,http://www.amherstbrewing.com/
36,"Amicas Pizza, Microbrews and More",136 East Second Street,Salida,Colorado,81201,United States,1-719-539-5219,
37,Amstel Brouwerij,Antwoordnummer 7181,Amsterdam,,,Netherlands,800-022-9885,http://www.amstel.com
38,Anacortes Brewing,320 Commercial Avenue,Anacortes,Washington,98221,United States,360-588-1720,http://www.anacortesrockfish.com/
39,Anchor Brewing,1705 Mariposa Street,San Francisco,California,94107,United States,1-415-863-8350,
40,Andechser Klosterbrauerei,Bergstrae 2,Andechs,Bayern,,Germany,49-(0)8152-/-376-0,
41,Anderson Valley Brewing,17700 Boonville Rd,Boonville,California,95415,United States,1-800-207-2337,http://avbc.com/
42,Andrew's Brewing,,Lincolnville,Maine,4849,United States,(207) 763-3305,
43,Angelic Brewing,,Madison,Wisconsin,53703,United States,1-608-257-2707,
44,Anheuser-Busch,One Busch Place,Saint Louis,Missouri,63118,United States,1-800-342-5283,http://www.anheuser-busch.com/
45,Appalachian Brewing Company,50 N. Cameron St.,Harrisburg,Pennsylvania,17110,United States,717.221.1080,http://www.abcbrew.com
46,Appleton Brewing,,Appleton,Wisconsin,,United States,,
47,Arcadia Brewing,103 West Michigan Avenue,Battle Creek,Michigan,49017,United States,1-269-963-9690,http://www.arcadiaales.com/
48,Arcobrau Grafliches Brauhaus,Schlossalle 1,Moos,Baden-Wurttemberg,94554,Germany,09938 / 918 180,http://www.arcobraeu.de
49,Arthur Guinness & Son,St. James's Gate,Dublin,,,Ireland,,http://www.guinness.com
50,Asahi Breweries,23-1 Azumabashi 1-chome,Tokyo,Kanto,,Japan,81-(03)-5608-5129,
51,Asheville Pizza and Brewing Co.,675 Merrimon Avenue,Asheville,North Carolina,28804,United States,(828) 254-1281,http://www.ashevillepizza.com/
52,ateck Pivovar,ikovo nmst 81,atec,,,Czech Republic,420-415-710-781,
53,Athenian Brewery,102 Kifissou Avenue,Athens,,0,Greece,30-210-5384911,
54,Atlanta Brewing Company,2323 Defoor Hills Rd NW,Atlanta,Georgia,30318,United States,404-355-5558,http://www.atlantabrewing.com/
55,Atlantic Brewing Company,15 Knox Rd.,Bar Harbor,Maine,4609,United States,207-288-BEER,http://www.atlanticbrewing.com
56,Atwater Block Brewing,237 Joseph Campau Street,Detroit,Michigan,48207,United States,1-313-877-9205,http://www.atwaterbeer.com
57,August Schell Brewing,1860 Schell Road,New Ulm,Minnesota,56073,United States,800-770-5020,http://www.schellsbrewery.com/
59,Augusta Brewing,5221 Water Street,Augusta,Missouri,63332,United States,1-636-482-2337,
240,Brew Makers,,Mountain View,California,,United States,,
60,Augustiner-BrÃƒÂ¤u MÃƒÂ¼nchen,Landsberger Strae 35,MÃƒÂ¼nchen,Bayern,,Germany,49-(0)89-/-519940,http://www.augustiner-braeu.de
61,Australian Brewing Corporation,229-255 Old Melbourne Road,Little River,Victoria,3211,Australia,+61 (03) 5283 1161,http://www.australianbrewingcorporation.com/
62,Avery Brewing Company,5763 Arapahoe Avenue,Boulder,Colorado,80303,United States,1-877-844-5679,http://www.averybrewing.com/
63,Back Road Brewery,310 Perry Street,LaPorte,Indiana,46350,United States,1-219-362-7623,http://www.backroadbrewery.com/
64,Backcountry Brewery,720 Main Street,Frisco,Colorado,80443,United States,1-970-668-2337,
65,Backwater Brewing,1429 West Service Drive,Winona,Minnesota,55987,United States,1-507-452-2103,
66,Bad Frog Brewery Company,,Rose City,Michigan,,United States,,
67,Ball- und Brauhaus Watzke,KÃƒÂ¶tzschenbroder Str. 1,Dresden,Sachsen,1139,Germany,,http://www.watzke.de
68,Ballast Point Brewing,5401 Linda Vista Road #406,San Diego,California,92110,United States,1-800-581-2739,http://www.ballastpoint.com/
69,Baltimore-Washington Beer Works,P.O. Box 9829,Baltimore,Maryland,21284,United States,410.321.1892,http://www.ravenbeer.com/home.html
70,Bamberger Mahr's-Bru,Wunderburg 10,Bamberg,Bayern,,Germany,49-(0)951-/-91517-0,
71,Bandana Brewery,,Mankato,Minnesota,,United States,,
72,Bar Harbor Brewing Company,8 Mt. Desert Street,Bar Harbor,Maine,4609,United States,(207) 288-4592,http://www.barharborbrewing.com/
73,Bard's Tale Beer Company,211 NW Ward Road,Lee's Summit,Missouri,,United States,,
74,Barfer - das kleine Brauhaus,Lautenberg 1,Ulm,Baden-Wrttemberg,,Germany,49-(0)731-/-6021110,
75,Barley Brothers Brewery and Grill,1425 McCulloch Boulevard,Lake Havasu City,Arizona,86403,United States,1-928-505-7837,
76,Barley Creek Brewing,RR 1 Box 185,Tannersville,Pennsylvania,18372,United States,1-570-629-9399,http://www.barleycreek.com/
77,Barley Island Brewing,639 Conner Street,Noblesville,Indiana,46060,United States,1-317-770-5280,
78,Barley John's Brewpub,781 Old Highway 8 SW,New Brighton,Minnesota,55112,United States,1-651-636-4670,
79,Barley's #2 Smokehouse and Brewpub,1130 Dublin Road,Columbus,Ohio,43215,United States,1-614-485-0227,
80,Barley's Brewing #1,467 North High Street,Columbus,Ohio,43215,United States,1-614-228-2537,
81,Barley's Casino & Brewing Company,4500 East Sunset Road #30,Henderson,Nevada,89014,United States,1-702-458-2739,
82,Baron Brewing Company,1605 S 93rd Building E Unit L,Seattle,Washington,98108,United States,206.764.1213,http://www.baronbeer.com/
83,Barrel House Brewing Co.,544B W. Liberty St.,Cincinnati,Ohio,45214,United States,513-421-2337,http://www.barrelhouse.com
84,Basil T's Brew Pub and Italian Grill,1171 Hooper Avenue,Toms River,New Jersey,8753,United States,1-732-244-7566,
85,Bass Brewers,137 High Street,Burton-upon-Trent,Staffordshire,,United Kingdom,44-(01283)-513347,
86,Bavaria,,Barranquilla,,,Colombia,,http://www.bavaria.com.co
87,Bavarian Barbarian Brewing Company,429 W. 3rd St,Williamsport,Pennsylvania,17701,United States,570.332.5050,http://www.bavarianbarbarian.com
88,Bayerische Staatsbrauerei Weihenstephan,Alte Akademie 2,Freising,Bayern,,Germany,49-(0)8161-/-536-0,
89,Bayern Brewing,1507 Montana Street,Missoula,Montana,59801,United States,1-406-721-1482,
90,"BBC Brewing Co., LLC",636 East Main Street,Louisville,Kentucky,40202,United States,1-502-584-2739,http://www.bluegrassbrew.com
91,Beach Brewing,,Orlando,Florida,,United States,,
92,Beach Chalet Brewery,1000 Great Highway,San Francisco,California,94121,United States,1-415-386-8439,
93,Beamish & Crawford,South Main Street,Cork,,,Ireland,353-21-911100,
94,Bear Republic Brewery,345 Healdsburg Avenue,Healdsburg,California,95448,United States,1-707-433-2337,http://www.bearrepublic.com/
95,Beck's,,,,,Germany,,http://www.becks.de/
96,Beermann's Beerwerks BrewPub,,Lincoln,California,,United States,,
97,Belfast Bay Brewing Company,100 Searsport Avenue,Belfast,Maine,4915,United States,207-338-4216,http://www.belfastbaybrewing.com/
98,Belhaven Brewery,Spott Road,East Lothian,Scotland,,United Kingdom,44-(0)1368-862734,
99,Belize Brewing,PO Box 1068,Belize City,,,Belize,,
100,Bell's Brewery Inc.,8938 Krum Ave.,Galesburg,Michigan,49053,United States,269.382.2338,http://www.bellsbeer.com/
101,Bellows Brew Crew,,Watertown,Wisconsin,,United States,,
102,Bent River Brewing,1413 Fifth Avenue,Moline,Illinois,61265,United States,1-309-797-2722,
103,Berliner Kindl Brauerei AG,Werbellinstrasse 50,Berlin,Berlin,,Germany,49-(0)30-/-68992-0,
104,Berliner-Kindl-Schultheiss-Brauerei,Indira-Ghandi-Strae 66-69,Berlin,Berlin,,Germany,49-(0)30-/-9609-0,
105,Bersaglier,Calle 92 NÃ¯Â¿Â½ 101,San Martin,Buenos Aires,1650,Argentina,(54)-011-4713-6557,http://www.bersaglier.com.ar/
106,Bethlehem Brew Works,569 Main St,Bethlehem,Pennsylvania,18018,United States,610.882.1300,http://www.thebrewworks.com/bethlehem-brew-works
107,Bibiana Brewing,,Urbana,Illinois,,United States,,
108,Biddy Early Brewery,Inagh,Ennis,,,Ireland,353-065-6836742,
109,Bierbrouwerij Bavaria,Burg. van den Heuvelstraat 35,Lieshout,,0,Netherlands,31-0499-428111,
110,Bierbrouwerij De Koningshoeven,Eindhovenseweg 3,Berkel-Enschot,,,Netherlands,31-013-5358147,http://www.latrappe.nl/
111,Bierbrouwerij St.Christoffel,Metaalweg 10,Roermond,,,Netherlands,31-71.51.56.085,http://www.christoffelbeer.com
112,Big Bang Brewery (Closed),650 Fifth Street #403,San Francisco,California,94107,United States,,
113,Big Boss Brewing Company,1249-A Wicker Drive,Raleigh,North Carolina,27604,United States,919-834-0045,http://www.bigbossbrewing.com
114,Big Buck Brewery,550 South Wisconsin Avenue,Gaylord,Michigan,49735,United States,,http://www.bigbuck.com/gaylord.html
115,Big Buck Brewery and Steakhouse #2,,Grand Rapids,Michigan,,United States,,
116,Big Dog's Brewing Company,4543 North Rancho Road,Las Vegas,Nevada,89130,United States,1-702-645-1404,
117,Big Hole Brewing,401 East Main Street,Belgrade,Montana,59714,United States,1-800-793-6656,
118,Big Horn Brewing @ The RAM 2,700 North Milwaukee Avenue,Wheeling,Illinois,60090,United States,1-847-520-1222,
119,Big Ridge Brewing,15133 Highway 10,Surrey,British Columbia,0,Canada,1-604-574-2739,
120,Big River Brewing,180 - 14200 Entertainment Boulevard,Richmond,British Columbia,0,Canada,1-604-271-2739,
121,Big Rock Brewery,5555 76th Avenue SE,Calgary,Alberta,0,Canada,1-403-720-3239,
122,Big Sky Brewing,5417 Trumpeter Way,Missoula,Montana,59808,United States,1-800-559-2774,
123,Big Time Brewing,4133 University Way NE,Seattle,Washington,98105,United States,1-206-545-4509,http://www.bigtimebrewery.com/
124,Bill's Tavern & Brewhouse,188 North Hemlock,Cannon Beach,Oregon,97110,United States,1-503-436-2202,
125,Binding Brauerei AG,Darmstdter Landstrae 185,Frankfurt am Main,Hessen,,Germany,49-(0)69-/-60650,
126,Birra Forst,"Via Val Venosta, 8",Lagundo / Algund,,0,Italy,39-0473-260111,
127,Birra Moretti,Viale Venezia 9,Udine,,,Italy,39-800-1859.00,
128,Birrificia Le Baladin,"Piazza V Luglio, 15",Piozzo,,0,Italy,39-0173-795431,
129,Birrificio Torrechiara,Strada Pilastro 35,Torrechiara,,,Italy,39-0521355113,
130,Bison Brewing,2598 Telegraph Avenue,Berkeley,California,94704,United States,1-510-841-7734,
131,Bitburger Brauerei,RÃƒÂ¶mermauer 3,Bitburg,Rheinland-Pfalz,,Germany,49-(0)6561-/-14-0,
132,"BJ's Pizza, Grill, and Brewery - Jantzen Beach",12105 North Center Avenue,Portland,Oregon,97217,United States,1-503-289-5566,
133,BJ's Restaurant and Brewery,600 Brea Mall,Brea,California,,United States,714-990-2095,http://www.bjsrestaurants.com/beer.aspx
134,Black Sheep Brewery,Wellgarth,Ripon,North Yorkshire,,United Kingdom,44-(01765)-689227,
135,Black Toad Brewing Company,Chicago IL 60612,Chicago,Illinois,,United States,,
136,Blacksburg Brewing Company,P.O. Box 315,Blacksburg,Virginia,24063,United States,,http://www.blacksburgbrewing.com/
137,Blackstone Restaurant & Brewery,1918 West End Avenue,Nashville,Tennessee,37203,United States,1-615-327-9969,
138,Blicks Brewing,,Colorado Springs,Colorado,,United States,,
139,Blitz-Weinhard Brewing,Portland OR 97209,Portland,Oregon,,United States,,
140,Bloomington Brewing Company,"1795 E 10th St,",Bloomington,Indiana,47402,United States,812.323-2112,http://bbc.bloomington.com
141,BluCreek Brewing Company,2605 South Stoughton Road,Madison,Wisconsin,53716,United States,1-608-204-0868,
142,Blue Cat Brew Pub,113 18th Street,Rock Island,Illinois,61201,United States,1-309-788-8247,
143,Blue Corn Caf and Brewery - Albuquerque,,Albuquerque,New Mexico,,United States,,
144,Blue Point Brewing,161 River Avenue,Patchogue,New York,11772,United States,1-631-475-6944,http://www.bluepointbrewing.com/
145,Blue Ridge Brewing,217 North Main Street,Greenville,South Carolina,29601,United States,1-864-232-4677,http://www.blueridgebrewing.com/
146,"Bluegrass Brewing Company, Inc.",3929 Shelbyville Rd.,Louisville,Kentucky,40207,United States,502-899-7070,http://www.bbcbrew.com
147,Bobcat Cafe & Brewery,4 Main Street,Bristol,Vermont,5443,United States,(802) 453-3311,http://www.bobcatcafe.com/
148,Boddington's Brewery,,Manchester,Manchester,,United Kingdom,,
149,Boiler Room Brewpub,2100 Casino Drive,Laughlin,Nevada,89029,United States,1-702-298-4000,
150,Bonaventure Brewing Co,404 South Figueroa Street #418,Los Angeles,California,90071,United States,(213) 236-0802,http://www.bonaventurebrewing.com/
151,Bonfire Brewery,,Northville,Michigan,,United States,,
152,Boon Rawd Brewery,999 Samsen Road,Bangkok,,,Thailand,66-(662)-669-2050,
153,Bootleggers Steakhouse and Brewery,,Bakersfield,California,,United States,,
154,Borsodi SÃƒÂ¶rgyÃƒÂ¡r,,BÃƒÂ¶cs,,,Hungary,,http://www.borsodisorgyar.hu/
155,Boscos Memphis Brewing,,Germantown,Tennessee,,United States,,
156,BOSS Browar Witnica S.A.,Ul. Marii Konopnickiej 1,Witnica,,,Poland,48-(95)-751-51-14,http://www.browar-witnica.pl/
157,Boston Beer Company,30 Germania Street,Boston,Massachusetts,2130,United States,1-800-372-1131,http://www.samueladams.com/
158,Boston Beer Works,61 Brookline Avenue,Boston,Massachusetts,2215,United States,1-617-536-2337,
159,Bottom's Up Brewing,402 West Pine Street,Pinedale,Wyoming,82941,United States,1-307-367-2337,
160,Boulder Beer Company,2880 Wilderness Place,Boulder,Colorado,80301,United States,1-303-444-8448,http://boulderbeer.com/
161,Boulevard Brewing Company,2501 Southwest Boulevard,Kansas City,Missouri,64108,United States,1-816-474-7095,http://www.blvdbeer.com/
162,Boundary Bay Brewery and Bistro,1107 Railroad Avenue,Bellingham,Washington,98227,United States,1-360-647-5593,
163,Brasal-Brasserie Allemande,,LaSalle,Quebec,,Canada,,
164,Brasserie Artisanale de Rulles,Rue Maurice Grevisse 36,Habay-Rulles,Luxembourg,,Belgium,32-(0)63-41-18-38,
165,Brasserie Bnifontaine,"13, rue Pasteur",Bnifontaine,,,France,33-03.21.08.68.68,
166,Brasserie Clarysse,Krekelput 16-18,Oudenaarde,Oost-Vlaanderen,,Belgium,32-055-31-17-21,
167,Brasserie D'Achouffe,Rue du Village 32,Houffalize-Achouffe,Luxembourg,,Belgium,32-061-28-81-47,
168,Brasserie d'Ecaussinnes,"rue Restaumont, 118",Ecaussinnes,Hainaut,,Belgium,32-067-/-34-22-77,
169,Brasserie d'Orval,Abbaye de Notre-Dame d'Orval,Villers-devant-Orval,Luxembourg,,Belgium,32-061-31-12-61,
170,Brasserie de Blaugies,"Rue de la Frontire, 435",Blaugies,Hainaut,,Belgium,32-065-65-03-60,
171,Brasserie de Brunehaut,Rue de Panneries 17,Brunehaut,Hainaut,7623,Belgium,32-069-34-64-11,http://www.brunehaut.com/
172,Brasserie de Cazeau,,,,,Belgium,,
173,Brasserie de l'Abbaye de Scourmont (Trappistes),Route de Rond Point 294,Chimay-Forges,Hainaut,,Belgium,32-060-21-30-63,
174,Brasserie De L'Abbaye Des Rocs,Chausse Brunehault 37,Montignies-sur-Roc,Hainaut,,Belgium,32-065-75-59-99,
175,Brasserie de l'Abbaye Val-Dieu,Val Dieu 225,Aubel,Lige,,Belgium,32-087-68-75-87,
176,Brasserie de la Senne,Victor Nonnemansstraat 40a,Sint-Pieters-Leeuw,Vlaams Brabant,,Belgium,32-0497-/-93.23.75,
241,BrewDog Ltd,AB43 8UE,Fraserburgh,,,United Kingdom,+44 1346 519 009,http://brewdog.com/
177,Brasserie De Saint Sylvestre,"121, rue de la Chapelle",St-Sylvestre-Cappel,,,France,33-03.28.40.15.49,http://www.brasserie-st-sylvestre.com/
178,Brasserie De Silenrieux,Rue de Noupr s/n,Cerfontaine-Silenrieux,Namur,,Belgium,32-071-63-32-01,
179,Brasserie de Silly,Rue Ville Basse 141,Silly,Hainaut,,Belgium,32-068-55-16-95,
180,Brasserie de Tahiti,BP 597,Tahiti,,,French Polynesia,689-467600,
181,Brasserie de Vervifontaine,Vervierfontaine 100,Jalhay-Vervifontaine,Lige,,Belgium,32-087-64-83-03,
182,Brasserie des Cimes,152 Avenue St Simond,Aix les Bains,,,France,33-04.79.88.16.80,
183,Brasserie des Franches-Montagnes,Chemin des Buissons 8,Saignelgier,,,Switzerland,41-32-951-26-26,
184,Brasserie des Gants,"rue du Castel, 19",Irchonwelz,Hainaut,,Belgium,32-068-28-79-36,
185,Brasserie des Vosges,680 rue de la Brasserie,Dommartin les Remiremont,,,France,33-03.29.22.11.36,
186,Brasserie du Benin,BP 896,Lom,,,Togo,228-215-062,
187,Brasserie du Bocq,Rue de la Brasserie 4,Purnode,Namur,,Belgium,32-083-61-07-80,
188,Brasserie Dubuisson,Chause de Mons 28,Pipaix,Hainaut,,Belgium,32-069-67-22-21,
189,Brasserie Dupont,Rue Basse 5,Tourpes,Hainaut,,Belgium,32-069-67-10-66,
190,Brasserie Duyck,"113, rte Nationale",Jenlain,,,France,33-03.27.49.70.03,
191,Brasserie Ellezelloise,Rue Guinaumont 75,Ellezelles,Hainaut,,Belgium,32-068-54-31-60,
192,Brasserie Fantme,Rue Pral 8,Soy,Luxembourg,,Belgium,32-(0)86-47-70-44,
193,Brasserie Grain D'Orge,,Ronchin,,,France,,
194,Brasserie La Binchoise,Rue Faubourg St Paul 38,Binche,Hainaut,,Belgium,32-(0)64-37-01-75,
195,Brasserie La Caracole,Cte Marie-Thrse 86,Falmignoul,Namur,,Belgium,32-082-74-40-80,
196,Brasserie La Choulette,16 rue des Ecoles,Hordain,,,France,33-03.27.35.72.44,
197,Brasserie Lefebvre,Chemin du Croly 52,Quenast,Brabant Wallon,,Belgium,32-067-67-07-66,
198,Brasserie McAuslan,5080 Rue St-Ambroise,Montreal,Quebec,H4C 2G,Canada,1-514-939-3060,http://www.mcauslan.com
199,Brasserie Pietra,Route de la Marana,Furiani,,,France,33-04.95.30.14.70,
200,Brasserie Thiriez,22 rue Wormhout,Esquelbecq,,,France,33-03.28.62.88.44,
201,Brasserie Val de Sambre,Rue Vandervelde 273,Goze,Hainaut,,Belgium,32-071-56-20-73,
202,Brasserie-Brouwerij Cantillon,Gheudestraat 56,Anderlecht,Brussel,,Belgium,32-(0)2-521-49-28,http://www.cantillon.be/
203,Brasseries Kronenbourg,68 route d'Oberhausbergen,Strasbourg,,,France,33-03.88.27.44.88,
204,Brauerei & Gasthof zur Krone,Brenplatz 7,Tettnang,Baden-Wrttemberg,,Germany,49-(0)7542-/-7452,
205,Brauerei Aying Franz Inselkammer KG,Zornedinger Strae 2,Aying,Bayern,,Germany,49-(0)8095-/-9065-0,
206,Brauerei Beck,Am Deich 18-19,Bremen,Bremen,,Germany,49-(0)421-/-50940,
207,Brauerei C. & A. Veltins GmbH & Co.,An der Streue,Meschede,Nordrhein-Westfalen,,Germany,49-(0)2934-/-959-0,
208,Brauerei Fssla,Obere Knigsstrae 19-21,Bamberg,Bayern,,Germany,49-(0)951-/-26516,
209,Brauerei Gbr. Maisel KG,Hindenburgstrasse 9,Bayreuth,,95445,Germany,+49 (0) 9 21/4 01-0,http://www.maisel.com/
210,Brauerei Grieskirchen AG,Stadtplatz 14,Grieskirchen,,,Austria,43-0-72-48/607-0,
211,Brauerei Gss,Brauhausgasse 1,Leoben-Gss,,,Austria,43-0-38-42/20-90-58-,
212,Brauerei Herrenhausen,Herrenhuser Strae 83-99,Hannover,Niedersachsen,,Germany,49-(0)511-/-7907-0,
213,Brauerei Hrle,Am Hopfengarten 5,Leutkirch im AllgÃƒÂ¤u,Baden-WÃƒÂ¼rttemberg,,Germany,49-(0)7561-/-9828-0,
214,Brauerei Hrlimann,Brandschenkestrasse 150,Zrich,,,Switzerland,41-01-/-288-26-26,
215,Brauerei im Fchschen,Ratinger Strasse 28,DÃƒÂ¼sseldorf,Nordrhein-Westfalen,,Germany,49-211-/-13747-0,
216,Brauerei Leibinger,Friedhofstrae 20-36,Ravensburg,Baden-Wrttemberg,,Germany,49-(0)751-/-22469,
217,Brauerei Locher AG,Alte Eggerstandenstrasse 1,Appenzell,,,Switzerland,41-071-/-787-13-18,
218,Brauerei Reissdorf,Emil-Hoffmann-Strae 4-10,Kln,Nordrhein-Westfalen,,Germany,49-(0)2236-/-9655-0,
219,Brauerei Schtzengarten,St. Jakobstrasse 37,Sankt-Gallen,,,Switzerland,41-071-/-243-43-43,
220,Brauerei Schumacher,Oststrae 123,Dsseldorf,Nordrhein-Westfalen,,Germany,49-(0)211-/-828902-0,
221,Brauerei Schwelm,Neumarkt 1,Schwelm,Nordrhein-Westfalen,,Germany,49-(0)2336-/-4908-0,
222,Brauerei Spezial,Obere Knigsstrae 10,Bamberg,Bayern,,Germany,49-(0)951-/-24304,
223,Brauerei und Altbierkche Pinkus Mller,Kreuzstrae 4-10,Mnster,Nordrhein-Westfalen,,Germany,49-(0)251-/-45151,http://www.pinkus-mueller.de/
224,Brauerei Wieselburg,,Wieselburg,,3250,Austria,+43-(0)7416-501-0,http://www.wieselburger.at
225,Brauereigasthof Adler,Ortsstrae 1,Herbertingen,Baden-Wrttemberg,,Germany,49-(0)7586-/-378,
226,Brauhaus am WaldschlÃƒÂ¶sschen,Am Brauhaus 8b,Dresden,Sachsen,1099,Germany,+49 351 - 652 39 00,http://www.waldschloesschen.de
227,Brauhaus Brew Hall,111 Main Street,Lucan,Minnesota,56255,United States,1-507-747-2796,http://www.braubrothersbrewing.com/
228,Brauhaus Faust,Hauptstrae 219,Miltenberg,Bayern,,Germany,49-(0)9371-/-9713-0,
229,Brauhaus Johann Albrecht - Dsseldorf,Niederkasseler Strae 104,Dsseldorf,Nordrhein-Westfalen,,Germany,49-(0)211-/-570129,
230,Brauhaus Johann Albrecht - Konstanz,Konradigasse 2,Konstanz,Baden-Wrttemberg,,Germany,49-(0)7531-/-25045,
231,Brauhaus Onuma,Onuma,Onuma,Hokkaido,,Japan,81-0138-67-2227,
232,Brauhaus Sion,Unter Taschenmacher 5-7,Kln,Nordrhein-Westfalen,,Germany,49-(0)221-/-2578540,
233,Brauhaus Sternen,Hohenzornstrasse 2,Frauenfeld,,,Switzerland,41-052-728-99-09,
234,Brausttte der Steirerbrau Aktiengesellschaft,Reiningshausstrae 1-7,Graz,,,Austria,43-0316/502-3545,
235,Breckenridge BBQ of Omaha,,Omaha,Nebraska,,United States,,
236,Breckenridge Brewery,471 Kalamath Street,Denver,Colorado,80204,United States,303-623-2739,http://www.breckbrew.com/
238,Brennerei-Distillerie Radermacher,Spitalstrasse 50,Raeren,Lige,,Belgium,32-(0)87-85.82.32,
239,Brew Kettle Taproom & Smokehouse BOP,8377 Pearl Road,Strongsville,Ohio,44136,United States,1-440-239-8788,
242,Brewer's Art,1106 N. Charles St.,Baltimore,Maryland,21201,United States,410-547-6925,http://www.belgianbeer.com
243,Brewery at Martha's Vineyard,,Oak Bluffs,Massachusetts,,United States,,
244,Brewery Belle-Vue,Delaunoystraat 58/60,Molenbeek,Brussel,,Belgium,32-024-12-44-11,
245,Brewery Budweiser Budvar,,,Ceske Budejovice,,Czech Republic,,http://www.budvar.cz/
246,Brewery Corsendonk,Steenweg op Mol 118,Oud-Turnhout,Antwerpen,,Belgium,,
247,Brewery Creek Brewing,23 Commerce Street,Mineral Point,Wisconsin,53565,United States,1-608-987-3298,http://www.brewerycreek.com/
248,Brewery De Troch,Langestraat 20,Ternat,Vlaams Brabant,,Belgium,32-02-582-10-27,
249,Brewery Ommegang,656 County Highway 33,Cooperstown,New York,13326,United States,1-800-544-1809,
250,Brewmasters Restaurant and Brewery South,,Kenosha,Wisconsin,,United States,,
251,Brewpub-on-the-Green,,Fremont,California,,United States,,
252,Breznak,,,,,Czech Republic,,http://drinksunion.qbizm.cz/de/pages/vyrobky_p_breznak.htm
253,Brick Brewing,1 Old Brewery Lane,Formosa,Ontario,0,Canada,1-519-367-2995,
254,Bricktown Brewery,299 Main Street,Dubuque,Iowa,52001,United States,1-563-582-0608,
255,BridgePort Brewing,1313 NW Marshall Street,Portland,Oregon,97209,United States,1-503-241-7179,http://www.bridgeportbrew.com/
256,Brimstone Brewing,4607 Wedgewood Boulevard,Frederick,Maryland,20176,United States,1-888-258-7434,
257,Bristol Brewing,1647 South Tejon Street,Colorado Springs,Colorado,80906,United States,1-719-633-2555,
258,Broad Ripple Brewing,842 East 65th Street,Indianapolis,Indiana,46220,United States,1-317-253-2739,
259,Brooklyn Brewery,79 North Eleventh Street,Brooklyn,New York,11211,United States,1-718-486-7422,http://www.brooklynbrewery.com/
260,Broughton Ales,Broughton,The Borders,Scotland,,United Kingdom,44-(01899)-830345,http://www.broughtonales.co.uk/
261,Brouwerij 't IJ,Funenkade 7,Amsterdam,,0,Netherlands,31-020-3201786,
262,Brouwerij Abdij der Trappisten van Westmalle,Antwerpsesteenweg 476,Westmalle,Antwerpen,,Belgium,32-033-12-05-35,http://www.trappistwestmalle.be
263,Brouwerij Abdij Saint Sixtus,Donkerstraat 12,Westvleteren,West-Vlaanderen,,Belgium,32-057-40-10-57,
264,Brouwerij Alken-Maes,Rue Derbque 7,Jumet,Hainaut,,Belgium,32-071-34-02-22,
265,Brouwerij Artois,Vaartstraat 94,Leuven,Vlaams Brabant,,Belgium,32-016-24-71-11,
266,Brouwerij Bavik - De Brabandere,Rijksweg 33,Bavikhove,West-Vlaanderen,,Belgium,32-56-71-13-79,
267,Brouwerij Bockor,Kwabrugstraat 5,Bellegem,West-Vlaanderen,,Belgium,32-056-21-51-71,
268,Brouwerij Boon,Fonteinstraat 65,Lembeek,Vlaams Brabant,,Belgium,32-2-356-66-44,
269,Brouwerij Bosteels,Kerkstraat 92,Buggenhout,Oost-Vlaanderen,,Belgium,32-052-33-22-82,
270,Brouwerij De Achelse Kluis,De Kluis 1,Achel,Limburg,,Belgium,32-011-80-07-60,
271,Brouwerij De Block,Nieuwbaan 92,Merchtem-Peizegem,Vlaams Brabant,,Belgium,32-052-37-21-59,
272,Brouwerij De Dolle Brouwers,Roeselarestraat 12b,Esen,West-Vlaanderen,BE-8160,Belgium,,http://www.dedollebrouwers.be/
273,Brouwerij de Gouden Boom,,Brugge,West-Vlaanderen,,Belgium,,
274,Brouwerij De Keersmaeker,Lierput 1,Kobbegem,Vlaams Brabant,,Belgium,32-02-454-11-11,
1421,DC Brau,3178-B Bladensburg Rd. NE,Washington,DC,20018,United States,,http://www.dcbrau.com/
276,Brouwerij De Landtsheer,Mandekenstraat 179,Buggenhout,Oost-Vlaanderen,,Belgium,32-052-33-39-11,
277,Brouwerij De Ranke,Brugsstraat 43,Wevelgem,West-Vlaanderen,,Belgium,32-056-41-82-41,
278,Brouwerij De Regenboog,Astridlaan 134,Assebroek,West-Vlaanderen,,Belgium,32-050/37.38.33,
279,Brouwerij De Smedt,Ringlaan 18,Opwijk,Vlaams Brabant,,Belgium,32-052-35-99-11,
280,Brouwerij der Sint-Benedictusabdij de Achelse Kluis,,Achel,,,Belgium,,http://www.achelsekluis.org/
281,Brouwerij Duvel Moortgat,,Breendonk,,,Belgium,,
282,Brouwerij Duysters,Michel Theysstraat 58A,Diest,Vlaams Brabant,,Belgium,32-013-77-10-07,
283,Brouwerij Girardin,Lindenbergstraat 10,Sint-Ulriks-Kapelle,Vlaams Brabant,,Belgium,32-024-52-64-19,
284,Brouwerij Het Anker,Guido Gezellelaan 49,Mechelen,Antwerpen,,Belgium,32-015-28-71-47,http://www.hetanker.be/
285,Brouwerij Huyghe,Brusselse Steenweg 282,Melle,Oost-Vlaanderen,,Belgium,32-092-52-15-01,
286,Brouwerij Kerkom,Naamsesteenweg 469,Kerkom,Limburg,,Belgium,32-011-68-20-87,
287,Brouwerij Liefmans,200 Aalststraat,Oudenaarde,Oost-Vlaanderen,,Belgium,32-055-31-13-92,http://www.liefmans.be/
288,Brouwerij Lindemans,Lenniksebaan 257,Vlezenbeek,Vlaams Brabant,,Belgium,32-025-69-03-90,
289,Brouwerij Nacional Balashi,,,,,Aruba,297 854805,http://www.balashi.com/balashi/
290,Brouwerij Oud Beersel,Laarheiestraat 230,Beersel,Vlaams Brabant,,Belgium,,
291,Brouwerij Rodenbach,Spanjestraat 133-141,Roeselare,West-Vlaanderen,,Belgium,32-051-27-28-10,
292,Brouwerij Roman,Hauwaart 105,Oudenaarde,Oost-Vlaanderen,,Belgium,32-055-45-54-01,
293,Brouwerij Sint-Jozef,Itterplein 19,Opitter,Limburg,,Belgium,32-089-86-47-11,
294,Brouwerij Slaghmuylder,Denterhoutembaan 2,Ninove,Oost-Vlaanderen,,Belgium,32-054-33-18-31,
295,Brouwerij St-Feuillien,"20, rue d'Houdeng",Le Roeulx,Hainaut,,Belgium,32-(0)64-31-18-18,
296,Brouwerij St. Bernardus,Trappistenweg 23,Watou,West-Vlaanderen,,Belgium,32-057/38.80.21,http://www.sintbernardus.be
297,Brouwerij Sterkens,Meerdorp 20,Hoogstraten-Meer,Antwerpen,,Belgium,32-03-317-00-50,
298,Brouwerij Strubbe,Markt 1,Ichtegem,West-Vlaanderen,,Belgium,32-051-58-81-16,
299,Brouwerij The Musketiers,Tramstraat 8,Ursel,Oost-Vlaanderen,,Belgium,32-(0)-9-226-42-76,
300,Brouwerij Van Den Bossche,St Lievensplein 16,Sint-Lievens-Esse,Oost-Vlaanderen,,Belgium,32-054-50-04-11,
301,Brouwerij Van Eecke,Douvieweg 2,Watou,West-Vlaanderen,,Belgium,32-057-42-20-05,
302,Brouwerij van Hoegaarden,Stoopkensstraat 46,Hoegaarden,Vlaams Brabant,,Belgium,32-016-76-98-11,
303,Brouwerij Van Honsebrouck,Oostrozebekestraat 43,Ingelmunster,West-Vlaanderen,,Belgium,32-051-33-51-60,
304,Brouwerij Van Steenberge,Lindenlaan 25,Ertvelde,Oost-Vlaanderen,,Belgium,32-09-344-50-71,
305,Brouwerij Verhaeghe,Beukenhofstraat 96,Vichte,West-Vlaanderen,,Belgium,32-056-77-70-32,
306,Browar NamysÃ…â€šÃƒÂ³w Sp. z o.o.,ul. Bolesawa Chrobrego 26,NamysÃ…â€šÃƒÂ³w,,,Poland,48-(077)-40-39-100,
307,Browar Okocim,ul. Browarna 14,Brzesko,,,Poland,48-0146865000,http://www.okocim.pl/
308,Browar Warka,ul. GoÃ…â€ºniewska 65,Warka,,,Poland,+48(0-48) 666 11 11,http://www.warka.com.pl/
309,Browar Zywiec,ul. Browarna 88,Zywiec,,34-300,Poland,48-0-33-614-614,http://www.zywiec.com.pl/
310,Brown Street Brewery,16 North Brown Street,Rhinelander,Wisconsin,54501,United States,1-715-369-2100,
311,Brownings,401 East Main St.,Louisville,Kentucky,40202,United States,502.515.0174,http://www.diningonmain.com/Brownings/Brownings_home.html
312,Bryggeriet lfabrikken,Hollselund Strandvej 74,Tisvildeleje,,,Denmark,45-70-20-79-30,
313,BT McClintic Beer Company,,Beloit,Wisconsin,,United States,,
314,Bube's Brewery,102 North Market Street,Mount Joy,Pennsylvania,17552,United States,717) 653-2056,http://www.bubesbrewery.com
315,Budjovick Budvar,Karoliny Svtl 4,esk Budjovice,,,Czech Republic,420-387-705-111,
316,Budjovick Mansk Pivovar,Lidick  51,esk Budjovice,,,Czech Republic,420-038-866-201,
317,Bull & Bush Pub & Brewery,4700 Cherry Creek Drive South,Denver,Colorado,80246,United States,1-303-759-0333,
318,Bulldog Brewing,,Fresno,California,,United States,,
319,Bullfrog Brewery,231 W. Fourth Street,Williamsport,Pennsylvania,17701,United States,570.326.4700,http://www.bullfrogbrewery.com
320,Bulmer Cider,,Hereford,,,United Kingdom,,
321,BÃƒÂ¼rgerbrÃƒÂ¤u Wolnzach,Am Brunnen 2,Wolnzach,Bayern,,Germany,49-(0)8442-/-955514,
322,Burton Bridge Brewery,Bridge Street,Burton-upon-Trent,Staffordshire,DE14 1SY,United Kingdom,44-(01283)-510573,http://www.burtonbridgebrewery.co.uk/Index.shtml
323,Butte Creek Brewing,945 West Second Street,Chico,California,95928,United States,1-530-894-7906,
324,Butterfield Brewing #1,,Fresno,California,,United States,,
325,Buzzards Bay Brewing Inc.,98 Horseneck Rd,Westport,Massachusetts,2790,United States,(508) 636-2288,http://www.buzzardsbrew.com/
326,C.B. & Potts of Cheyenne,1650 Dell Range Boulevard,Cheyenne,Wyoming,82001,United States,1-307-632-8636,
327,C.H. Evans Brewing Company,19 Quackenbush Square,Albany,New York,12207,United States,(518) 447-9000,http://www.evansale.com/
328,Caldera Brewing,540 Clover Lane,Ashland,Oregon,97520,United States,1-541-482-4677,http://www.calderabrewing.com
329,Caledonian Brewing,42 Slateford Road,Edinburgh,Scotland,,United Kingdom,44-(0131)-337-1286,
330,Calhoun's Microbrewery,6515 Kingston Pike,Knoxville,Tennessee,37919,United States,1-865-673-3377,
331,California Cider Company,,San Rafael,California,,United States,,
332,Callahan's Pub and Brewery,8280-A Mira Mesa Boulevard,San Diego,California,92126,United States,1-858-578-7892,
333,Cambridge Brewing,1 Kendall Square #100,Cambridge,Massachusetts,2139,United States,1-617-494-1994,http://www.cambrew.com/
334,Cameron's Brewing,1165 Invicta Drive,Oakville,Ontario,0,Canada,1-905-849-8282,
335,Camerons Brewery Company,Lion Brewery,Harltepool,Cleveland,,United Kingdom,44-(01429)-266-666,
336,Canadian Brewery,,Saskatoon,Saskatchewan,,Canada,,
337,Cape Ann Brewing,27 Commercial Street,Gloucester,Massachusetts,1930,United States,1-866-233-7636,
338,Capital Brewery,7734 Terrace Avenue,Middleton,Wisconsin,53562,United States,1-608-836-7100,http://www.capital-brewery.com/
339,Capital City Brewing Company,"1100 New York Ave, NW",Washington,District of Columbia,20005,United States,202.628.2222,http://www.capcitybrew.com
340,Capitol City Brewing #4,2700 South Quincy Street,Arlington,Virginia,22206,United States,1-703-578-3888,
341,Captain Lawrence Brewing Company,99 Castleton Street,Pleasantville,New York,10570,United States,914-741-BEER,http://www.captainlawrencebrewing.com/
343,Carlow Brewing Company,"The Goods Store, Station Road",Carlow,,,Ireland,353 (0)59  9134356,http://www.carlowbrewing.com
344,Carlsberg Bryggerierne,Vesterflledvej 100,Kbenhavn,,,Denmark,45-33-27-33-27,
345,Carlsberg Sverige AB,rstadvgen,Falkenberg,,,Sweden,46-08-757-70-00,
346,Carlton and United Breweries,77 Southbank Boulevard,Melbourne,Victoria,,Australia,61-(03)-9342-5511,
347,Carlyle Brewing,215 East State Street,Rockford,Illinois,61104,United States,1-815-963-2739,
348,Carmel Brewing,,Salinas,California,,United States,,
349,Carolina Beer Company,110 Barley Park Lane,Mooresville,North Carolina,28115,United States,(704) 799-2337,http://www.carolinabeer.com/
350,Carolina Brewery,460 West Franklin Street,Chapel Hill,North Carolina,27516,United States,1-919-942-1800,
351,Carver Brewing Co.,1022 Main Ave.,Durango,Colorado,81301,United States,(970) 259 - 2545,http://www.carverbrewing.com/_/home.htm
352,Castle Springs Brewery,,Moultonborough,New Hampshire,,United States,,
353,Cat's Paw Home Brew,,,,,United States,,
354,Catamount Brewing,,White River Junction,Vermont,,United States,,
355,Cedar Brewing,,Cedar Rapids,Iowa,,United States,,
356,Celis Brewery,,Austin,Texas,,United States,,
357,Central City Brewing Company,13450 - 102 Avenue,Surrey,British Columbia,,Canada,,http://www.centralcitybrewing.com/
358,Central Waters Brewing Company,351 Allen Street,Amherst,Wisconsin,54406,United States,1-715-824-2739,http://www.centralwaters.com/
359,Cervecera Centro Americana S.A.,"3ra.Av.Norte Final, Finca El Zapote, Zona 2",Guatemala City,,,Guatemala,502-288-1555-/-289-1,
360,Cervecera Cuauhtmoc-Moctezuma,Av.Alfonso Reyes Norte No.2202,Monterrey,Nuevo Leon,,Mexico,52-81-8328-5000,http://www.ccm.com.mx/
361,Cervecera del Pacfico,Calz.Gabriel Leyva y Melchor Ocampo,Mazatln,Sinaloa,,Mexico,52-1-28-71-6011,
362,Cervecera Hondurea,Carretera a Puerto Corts,San Pedro Sula,,,Honduras,504-550-0100,
363,Cervecera Jerome,Mendoza,Mendoza,,,Argentina,54-0261-4320449,
364,Cervecera Nacional,Va Ricardo J. Alfaro y Transistmica,El Dorado,,,Panama,507-236-1400,
365,Cerveceria Bucanero,Circunvalacin Sur Km. 3 1/2,Holguin,,,Cuba,53-(5324)-46-8226,
366,CervecerÃƒÂ­a La Constancia,,San Salvador,,,El Salvador,2231-5143,http://www.laconstancia.com/
367,Cervejaria de Macau,"Unit 1-B, Blk. A, Edf. Ind. Fei Tong",Macao,,,Macao,,
368,Cervejaria Kaiser Brasil,"Avenida Tocantins, 199 / Caixa Postal 621",Ponta Grossa,Paran,,Brazil,55-(42)-219-2000,
369,Cervejaria Sudbrack,"Rua Bahia, 5181",Blumenau,Santa Catarina,,Brazil,55-(47)-3488-7371,http://www.eisenbahn.com.br/
370,Cervezas Alhambra,"Avenida de Murcia, 1",Granada,,,Spain,34-958817205,
371,Chama River Brewing,4939 Pan American Freeway NE,Albuquerque,New Mexico,87109,United States,1-505-342-1800,
372,Charles Wells Ltd.,Havelock Street,Bedford,Bedford,,United Kingdom,44-(01234)-272766,
373,Charlie and Jake's Brewery and BBQ,6300 North Wickham Road #137,Melbourne,Florida,32940,United States,1-321-752-7675,
374,Chelsea Brewing Company,"Chelsea Piers, Pier 59",New York,New York,10011,United States,212.336.6440,http://chelseabrewingco.com/
375,Cherryland Brewing,,Sturgeon Bay,Wisconsin,,United States,,
376,Cheshire Cat Brewery,7803 Ralston Road,Arvada,Colorado,80002,United States,1-303-431-9000,
377,Chicago Brewing,2201 South Fort Apache Road,Las Vegas,Nevada,89117,United States,1-702-254-3333,
378,Chimay (Abbaye Notre Dame de Scourmont),Route de Charlemagne 8,Chimay,,,Belgium,+32 (0)60 21 03 27,http://www.chimay.com
379,Cigar City Brewing,3924 West Spruce Street Suite A,Tampa,Florida,33607,United States,813-348-6363 ext 206,http://cigarcitybeer.com/
380,Circle V Brewing,,Indianapolis,Indiana,,United States,,
381,"City Brewing Company, LLC",925 South Third Street,La Crosse,Wisconsin,54601,United States,1-608-785-4200,http://www.citybrewery.com/
382,CJ's Brewery & Grill,,La Jolla,California,,United States,,
383,Cleveland ChopHouse and Brewery,824 West St.Clair Avenue,Cleveland,Ohio,44113,United States,1-216-623-0909,
384,Climax Brewing Copmany,112 Valley Road,Roselle Park,New Jersey,7204,United States,(908) 620-9585,http://www.climaxbrewing.com/
385,Clipper City Brewing Co.,4615-B Hollins Ferry Road,Baltimore,Maryland,21227,United States,1-410-247-7822,http://www.ccbeer.com/
386,Clner Hofbrau Frh,Am Hof 12-14,Kln,Nordrhein-Westfalen,,Germany,49-(0)221-/-2613-0,
387,Coach's Norman,102 West Main,Norman,Oklahoma,73069,United States,1-405-360-5726,
388,Coast Brewing,,Biloxi,Mississippi,,United States,,
389,Coast Range Brewing,7050 Monterey Street,Gilroy,California,95020,United States,1-408-842-1000,
390,Coastal Fog Brewing,,Concord,California,,United States,,
391,Coeur d'Alene Brewing Company,209 Lakeside Avenue,Coeur d'Alene,Idaho,83814,United States,(208) 664-2739,http://www.cdabrewing.com/
392,Cold Spring Brewing,219 Red River Avenue North,Cold Spring,Minnesota,56320,United States,1-320-685-8686,http://www.coldspringbrewery.com/
393,Columbia Bay Brewery Restaurant and Pub,,Lake Villa,Illinois,,United States,,
394,Commonwealth Brewing #1,,Boston,Massachusetts,,United States,,
395,Coniston Brewing,Coppermines Road,Coniston,Cumbria,,United Kingdom,44-(01539)-441133,
396,Cooper's Cave Ale Company,2 Sagamore Street,Glens Falls,New York,12801,United States,518.792.0007,http://www.cooperscaveale.com/
397,Coopers Brewery,461 South Road,Regency Park,South Australia,,Australia,61-(08)-8440-1800,http://www.coopers.com.au/
398,Cooperstown Brewing Company,"River Street, P.O. Box 276",Milford,New York,13807,United States,607-286-9330,http://www.cooperstownbrewing.com/
399,Coors Brewing - Golden Brewery,311 Tenth Street,Golden,Colorado,80401,United States,1-866-812-2337,http://www.coors.com
400,Copper Dragon Brewing,,Carbondale,Illinois,62901,United States,1-618-549-3348,
401,Copper Eagle Brewing,,Grand Island,Nebraska,,United States,,
402,Copper Kettle Brewery,339 Fairground Rd,Millmont,Pennsylvania,17845,United States,270-342-1638,http://www.ckbrewery.com/
403,Corner Pub,100 Main Street,Reedsburg,Wisconsin,53959,United States,1-608-524-8989,
404,Coronado Brewing Company,170 Orange Avenue,Coronado,California,92118,United States,1-619-437-4452,http://www.coronadobrewingcompany.com/
405,Costal Extreme Brewing Company,307 Oliphant Lane,Middletown,Rhode Island,2842,United States,(401) 849-5232,http://www.newportstorm.com/
406,Courage Brewery,Tadcaster LS24 9SA,Tadcaster,North Yorkshire,,United Kingdom,44-(01937)-832091,
407,Court Avenue Brewing,309 Court Avenue,Des Moines,Iowa,50309,United States,1-515-282-2739,
408,Courthouse Pub,1001 South Eighth Street,Manitowoc,Wisconsin,54220,United States,1-920-686-1166,
409,Crabby Larry's Brewpub Steak & Crab House,237 West Butler Avenue,Chalfont,Pennsylvania,18914,United States,1-215-822-8788,http://www.crabbylarrys.com/
410,Crabtree Brewery,625 3rd St. #D,Greeley,Colorado,80631,United States,[970] 356-0516,http://www.crabtreebrewing.com
411,Craftsman Brewing,1260 Lincoln Avenue #100,Pasadena,California,91103,United States,1-626-296-2537,
412,Crane River Brewpub and Cafe,,Lincoln,Nebraska,,United States,,
413,Crescent City Brewhouse,527 Decatur Street,New Orleans,Louisiana,70130,United States,1-888-819-9330,
414,Crested Butte Brewery &  Pub,226 Elk Avenue,Crested Butte,Colorado,81224,United States,1-970-349-5026,
415,Cricket Hill,24 Kulick Road,Fairfield,New Jersey,7004,United States,973-276-9415,http://www.crickethillbrewery.com
416,Crooked River Brewing,,Cleveland,Ohio,,United States,,
417,Crooked Waters Brewing,,Peoria,Illinois,,United States,,
418,Cropton Brewery,Cropton,Pickering,North Yorkshire,,United Kingdom,44-(01751)-417330,
1420,Devil's Canyon,,Belmont,CA,,United States,,
420,Cucapa Brewing Company,,Mexicali,Baja,,Mexico,,http://www.cucapa.com/
421,Cugino Brewing Company,1501 East Wilson,Batavia,Illinois,60510,United States,1-630-761-8888,
422,Cumberland Brewery,1576 Bardstown Rd,Louisville,Kentucky,40205,United States,(502) 458-8727,
423,D.L. Geary Brewing Company,38 Evergreen Drive,Portland,Maine,4103,United States,,http://www.gearybrewing.com
424,Daas,,Tournai,,,Belgium,442032865958,http://www.daasbeer.com/
425,Daleside Brewery,Camwal Road,Harrogate,North Yorkshire,,United Kingdom,44-(01423)-880022,
426,Dark Horse Brewing Co.,511 S. Kalamazoo Ave.,Marshall,Michigan,49068,United States,269-781-9940,http://www.darkhorsebrewery.com/
427,Day Brewing,,Marrero,Louisiana,,United States,,
428,de dochter van de korenaar,pastoor de katerstraat 24,baarle-hertog,,2387,Belgium,0032 14699800,http://www.dedochtervandekorenaar.be
429,De Friese Bierbrouwerij Us Heit,Snekerstraat 43,Bolsward,,,Netherlands,31-(0)515-577-449,
430,De Halve Maan,Walplein 26,Brugge,West-Vlaanderen,BE-8000,Belgium,+32-50-33.26.97,http://www.halvemaan.be/
431,De Leyerth Brouwerijen,Krommekeerstraat 21,Ruiselede,West-Vlaanderen,,Belgium,32-051-/-68-89-99,
432,De Proef Brouwerij,Doornzelestraat 20,Lochristi-Hijfte,Oost-Vlaanderen,,Belgium,32-09-/-356.71.02,
433,De Struise Brouwers,Woesten,Woesten,West-Vlaanderen,,Belgium,,http://www.struisebrouwers.be/
434,Deep Creek Brewing,,McHenry,Maryland,,United States,,
435,DeGroen's Grill,,Baltimore,Maryland,,United States,,
436,Del Mar Stuft Pizza and Brewing,,San Diego,California,,United States,,
437,Delafield Brewhaus,3832 Hillside Drive,Delafield,Wisconsin,53018,United States,1-262-646-7821,
438,Dempsey's Restaurant & Brewery,50 East Washington Street,Petaluma,California,94952,United States,1-707-765-9694,
439,Denmark Brewing,,Denmark,Wisconsin,,United States,,
440,Denver ChopHouse and Brewery,1735 19th Street #100,Denver,Colorado,80202,United States,1-303-296-0800,
441,Deschutes Brewery,901 SW Simpson Avenue,Bend,Oregon,97702,United States,1-541-385-8606,http://www.deschutesbrewery.com/
442,Desnoes & Geddes Ltd,214 Spanish Town,Kingston,,,Jamaica,1-876-923-9291,
443,Devil Mountain Brewing,,Cincinnati,Ohio,,United States,,
444,Diamond Bear Brewing Co.,323-C Cross Street,Little Rock,Arkansas,72201,United States,1-501-708-2739,http://www.diamondbear.com/
445,Diamond Knot Brewery & Alehouse,621 Front Street,Mukilteo,Washington,98275,United States,1-425-355-4488,http://www.diamondknot.com/
446,Diamondback Brewery,,Cleveland,Ohio,,United States,,
447,Dick's Brewing,5945 Prather Road,Centralia,Washington,98531,United States,1-800-586-7760,
448,Diebels Privatbrauerei,Brauerei-Diebels-Strae 1,Issum,Nordrhein-Westfalen,,Germany,49-(0)2835-/-30-0,
449,Dieu du Ciel,29 Laurier Ouest,MontrÃƒÂ©al,Quebec,,Canada,1-514-490-9555,http://www.dieuduciel.com/
450,Dillon Dam Brewery,100 Little Dam Road,Dillon,Colorado,80435,United States,1-970-262-7777,
451,Dinkelacker-Schwaben Bru,Tbinger Strae 46,Stuttgart,Baden-Wrttemberg,,Germany,49-(0)711-/-6481-0,
452,Dirt Cheap Cigarettes and Beer,895 Bolger Court,Fenton,Missouri,63026,United States,1-636-343-9770,
453,Dix Barbecue & Brewery,871 Beatty Street,Vancouver,British Columbia,0,Canada,1-604-682-2739,
454,Dixie Brewing,2401 Tulane Avenue,New Orleans,Louisiana,70119,United States,1-504-822-8711,
455,Dixon's Downtown Grill,,Denver,Colorado,80202,United States,1-303-573-6100,
456,Dock Street Beer,701 S. 50th Street,West Philly,Pennsylvania,19143,United States,(215)-726-2337,http://www.dockstreetbeer.com
457,Dockside Brewing,1253 Johnston Street,Vancouver,British Columbia,0,Canada,1-604-685-7070,
458,Doemens e.V.,Stefanusstrae 8,Grfelfing,Bayern,,Germany,49-(0)89-/-85805-0,
459,Dogfish Head Craft Brewery,6 Cannery Village Center,Milton,Delaware,19968,United States,1-888-834-3474,http://www.dogfish.com
460,Dortmunder Actien Brauerei  DAB,Steigerstrae 20,Dortmund,Nordrhein-Westfalen,,Germany,49-(0)231-/-8400-0,
461,Dostal Alley,1 Dostal Alley,Central City,Colorado,80427,United States,1-303-582-1610,
462,Double Mountain Brewery & Taproom,8 Fourth Street,Hood River,Oregon,97031,United States,541-387-0042,http://www.doublemountainbrewery.com/
463,Dragonmead Microbrewery,14600 East Eleven Mile Road,Warren,Michigan,48089,United States,1-586-776-9428,
464,Drake's Brewing,1933 Davis Street #177,San Leandro,California,94577,United States,1-510-562-0866,http://drinkdrakes.com/
465,Dreher Srgyrak Zrt.,Jszbernyi t 7-11,Budapest,,,Hungary,36-1-432-9700,
466,Dry Gulch Brewing,,Albuquerque,New Mexico,,United States,,
467,Dublin Brewing,,Dublin,,,Ireland,,
468,Dubuque Brewing and Bottling,,Dubuque,Iowa,,United States,,
469,Duck-Rabbit Craft Brewery,4519 W. Pine Street,Farmville,North Carolina,27828,United States,(252) 753-7745,http://www.duckrabbitbrewery.com/
470,DuClaw,901 S. Bond St.,Baltimore,Maryland,21231,United States,410-563-3400,http://www.duclaw.com/
471,Dunedin Brewery,937 Douglas Ave,Dunedin,,34698,United States,727 736 0606,http://www.dunedinbrewery.com
472,Duneland Brewhouse Pub and Restaurant,,Michigan City,Indiana,46360,United States,1-219-878-9180,
473,Duvel Moortgat,Breendonkdorp 58,Breendonk,Antwerpen,,Belgium,32-038-86-71-21,
474,Dux de Lux,16 Church Street PO Box 684,Queenstown,,,New Zealand,03 442 9688,http://www.thedux.co.nz/
475,Eagle Brewing,625 Fourth Street,Mukilteo,Washington,98275,United States,1-425-348-8088,
476,East End Brewing Company,6923 Susquehanna St.,Pittsburgh,Pennsylvania,15208,United States,412-537-2337,http://www.eastendbrewing.com/
477,Eastern Shore Brewing,605 S. Talbot St.,St Michaels,Maryland,21663,United States,410.745.8010,http://www.easternshorebrewing.com/
478,Eddie McStiff's Brewpub,57 South Main Street,Moab,Utah,84532,United States,1-435-259-2337,
479,Edelweissbrauerei Farny,Drren 5,Kilegg,Baden-Wrttemberg,,Germany,49-(0)7522-/-9788-0,
480,Eder & Heylands,Aschaffenburger StraÃƒÅ¸e 3-5,GroÃƒÅ¸ostheim,Bavaria,63762,Germany,+49 6026 5090,http://www.eder-heylands.de
481,Eel River Brewing,1777 Alamar Way,Fortuna,California,95540,United States,1-707-725-2739,http://eelriverbrewing.com/
482,Efes Moscow Brewery,"ul. Podolskikh Kursantov, 15 B",Moskva,Moskva,,Russia,7-(095)-797-98-00,
483,Egan Brewing,,De Pere,Wisconsin,,United States,,
484,Einbecker Brauhaus AG,Papenstrae 4-7,Einbeck,Niedersachsen,,Germany,49-(0)5561-/-797-0,
838,McCashin's Brewery & Malthouse,660 Main Road,Nelson,,,New Zealand,64-(03)-547-0526,
485,EJ Phair Brewing Company and Alehouse,2151 Salvio Street,Concord,California,94520,United States,1-925-691-4253,
486,el ahram company,,,,,Egypt,,
487,El Toro Brewing Company,17605 Monterey Road,Morgan Hill,California,95037,United States,408-782-2739,http://www.eltorobrewing.com/
488,"Eldridge, Pope and Co.",,Dorchester,Dorset,,United Kingdom,,
489,Elgood & Sons,Wisbech PE13 1LN,Wisbech,Cambridge,,United Kingdom,,
490,Elk Creek Cafe and Aleworks,100 West Main Street PO Box 432,Millheim,Pennsylvania,16854,United States,(814) 349-8850,http://www.elkcreekcafe.net/
491,Elk Grove Brewery & Restaurant,9085 Elk Grove Boulevard,Elk Grove,California,95624,United States,1-916-685-2537,
492,Ellersick Brewing Big E Ales,5030 208th ST SW Ste. A,Lynnwood,Washington,98036,United States,425-672-7051,http://www.ellersickbrewing.com/
493,Ellicott Mills Brewing,8308 Main Street,Ellicott City,Maryland,21043,United States,1-410-313-8141,http://www.ellicottmillsbrewing.com
494,Elliott Bay Brewery and Pub,4720 California Avenue SW,Seattle,Washington,98116,United States,1-206-932-8695,
495,Elm City Brewing Co,222 West St # 46,Keene,New Hampshire,3431,United States,(603) 355-3335,http://www.elmcitybrewing.com/
496,Elysian Brewery & Public House,1221 East Pike Street,Seattle,Washington,98122,United States,1-206-860-1920,http://www.elysianbrewing.com/
497,Elysian Brewing - TangleTown,2106 North 55th Street,Seattle,Washington,98103,United States,1-206-547-5929,
498,Emerson Brewing,14 Wickliffe Street,Dunedin,,,New Zealand,64-(03)-477-1812,
499,Emery Pub,,Emeryville,California,,United States,,
500,Emmett's Tavern and Brewery,128 West Main Street,West Dundee,Illinois,60118,United States,1-847-428-4500,
501,Empyrean Brewing Company,729 Q Street,Lincoln,Nebraska,68508,United States,1-402-434-5959,
502,EndeHouse Brewery and Restaurant,,Reedsburg,Wisconsin,,United States,,
503,Engel Brauerei Schwbisch Gmnd Lang,D-73525 Schwbisch Gmnd,Schwbisch Gmnd,Baden-Wrttemberg,,Germany,,
504,Engine House #9,611 North Pine,Tacoma,Washington,98406,United States,1-253-272-3435,
505,English Ales Brewery,223 Reindollar Avenue,Marina,California,93933,United States,1-831-883-3000,
506,Epic Brewing Company,"186 James Fletcher Drive, Otahuhu",Auckland,,2145,New Zealand,+64 21 632 337,http://epicbeer.com/
507,Erie Brewing Company,1213 Veshecco Drive,Erie,Pennsylvania,16501,United States,(814) 459-7741,http://www.eriebrewingco.com
508,Esser's Cross Plains Brewery,2109 Hickory Street,Cross Plains,Wisconsin,53528,United States,1-608-798-3911,http://www.essersbest.com/
509,Estes Park Brewery,470 Prospect Village Dr.,Estes Park,Colorado,80517,United States,970-586.5421,http://www.epbrewery.net/
510,Etna Brewing,131 Callahan,Etna,California,96027,United States,1-530-467-5277,
511,Ettaler Klosterbetriebe Abteilung Brauerei & Destillerie,Kaiser-Ludwig-Platz 1,Ettal,Bayern,,Germany,49-(0)8822-/-74450,
512,F.X. Matt Brewing,811 Edward Street,Utica,New York,13502,United States,1-800-690-3181-x222,http://www.saranac.com
513,Far West Ireland Brewing,,Redmond,Washington,98052,United States,1-425-869-5933,
514,Fauerbach Brewing Company,1714 Camus Lane,Madison,Wisconsin,53705,United States,,http://www.fauerbachbrewery.com/
515,Faultline Brewing #1,1235 Oakmead Parkway,Sunnyvale,California,94086,United States,1-408-736-2739,
516,Faultline Brewing #2,,Walnut Creek,California,94596,United States,1-925-938-2739,
517,Federation Brewery,Lancaster Road,Gateshead,Tyne and Wear,,United Kingdom,44-(0191)-4609023,
518,FeldschlÃƒÂ¶ÃƒÅ¸chen AG,Cunnersdorfer Str. 25,Dresden,Sachsen,1189,Germany,,http://www.feldschloesschen.de
519,Felinfoel Brewery Co Ltd,Farmers Row,Llanelli,Wales,,United Kingdom,44-01554-773357,
520,Fifty Fifty Brewing Co.,11197 Brockway Road,Truckee,California,96161,United States,530.587.BEER,http://www.fiftyfiftybrewing.com/
521,Firehouse Brewery & Restaurant,,Red Oak,Iowa,,United States,,
522,Firehouse Brewing,610 Main Street,Rapid City,South Dakota,57701,United States,1-605-348-1915,
523,Firehouse Grill & Brewery,111 South Murphy Avenue,Sunnyvale,California,94086,United States,1-408-773-9500,
524,Firestone Walker Brewing Company,1400 Ramada Drive,Paso Robles,California,93446,United States,(805) 238-2556,http://www.firestonewalker.com/
525,First Coast Brewing,,Wilmington,North Carolina,,United States,,
526,Fish Brewing Company & Fish Tail Brewpub,515 Jefferson Street SE,Olympia,Washington,98501,United States,1-360-943-3650,http://www.fishbrewing.com/
527,"Fitger's Brewhouse, Brewery and Grill",600 East Superior Street,Duluth,Minnesota,55804,United States,1-218-726-1392,
528,Fitzpatrick's Brewing,,Iowa City,Iowa,,United States,,
529,Flagstaff Brewing,16 East Route 66,Flagstaff,Arizona,86001,United States,1-520-773-1442,
530,Flat Branch Pub & Brewing,115 S. Fifth St.,Columbia,Missouri,65201,United States,(573) 499-0400,http://www.flatbranch.com
531,Flat Earth Brewing Company,2035 Benson Avenue,St. Paul,Minnesota,55116,United States,,http://flatearthbrewing.com/
532,Flatlander's Restaurant & Brewery,200 Village Green,Lincolnshire,Illinois,60069,United States,1-847-821-1234,
534,Flensburger Brauerei,Munketoft 12,Flensburg,Schleswig-Holstein,24937,Germany,,http://www.flens.co.uk/
535,Florida Beer Company,2500 S. Harbor City Blvd.,Melbourne,Florida,32901,United States,321-728-3412,http://www.floridabeer.com/
536,Flossmoor Station Brewery,1035 Sterling Avenue,Flossmoor,Illinois,60422,United States,1-708-957-2739,
537,Flour City Brewing,,Rochester,New York,,United States,,
538,Flyers Restraunt and Brewery,32295 State Route 20,Oak Harbor,Washington,98277,United States,360.675.5858,http://www.eatatflyers.com/
539,Flying Bison Brewing,491 Ontario Street,Buffalo,New York,14207,United States,1-716-873-1557,http://www.flyingbisonbrewing.com
540,Flying Dog Brewery,2401 Blake St.,Denver,Colorado,80205,United States,303-292-5027,http://www.flyingdogales.com/
541,Flying Fish Brewing Company,1940 Olney Avenue,Cherry Hill,New Jersey,8003,United States,(856) 489-0061,http://www.flyingfish.com/
542,Folx-les-Caves,B-1350 Jauche,Jauche,Brabant Wallon,,Belgium,,
543,Foothills Brewing Company,638 W. 4th Street,Winston-Salem,North Carolina,27101,United States,(336) 777-3348,http://www.foothillsbrewing.com/
544,Fordham Brewing,"95 Cathedral Street, Suite 200",Annapolis,Maryland,21401,United States,1-410-216-9730,http://www.ramsheadtavern.com/
545,Fort Collins Brewery,1900-B East Lincoln Avenue,Fort Collins,Colorado,80524,United States,1-970-472-1499,http://www.fortcollinsbrewery.com
546,Foster's Australia Ltd.,,,,,Australia,,http://www.fostersbeer.com/
547,Fosters Tien Gang,Thnh Pho Ho Ch Minh,Thnh Pho Ho Ch Minh,,,Viet Nam,,
548,Founder's Restaurant & Brewing,,Alexandria,Virginia,,United States,,
549,Founders Brewing,235 Grandville Avenue SW,Grand Rapids,Michigan,49503,United States,1-616-776-1195,http://www.foundersbrewing.com/
550,Founders Hill Brewing,,Downers Grove,Illinois,,United States,,
551,Four Peaks Brewing,1340 East Eighth Street #103,Tempe,Arizona,85281,United States,1-480-303-9967,http://www.fourpeaks.com/
552,Fox River Brewing #1,1501 Arboretum Drive,Oshkosh,Wisconsin,54901,United States,1-920-232-2337,
553,Fratellos Restaurant and Brewery,4301 West Wisconsin,Appleton,Wisconsin,54915,United States,1-920-991-0000,
554,Frederic Robinson Ltd.,Unicorn Brewery,Stockport,Cheshire,,United Kingdom,44-(0161)-480-6571,
555,Frederick Brewing,4607 Wedgewood Boulevard,Frederick,Maryland,20176,United States,1-888-258-7434,
556,Free State Brewing,636 Massachusetts,Lawrence,Kansas,66044,United States,1-785-843-4555,http://freestatebrewing.com/
557,Freeminer Brewery,Whimsey Road,Cinderford,Gloucestershire,,United Kingdom,44-(01594)-827989,
558,Friesisches Brauhaus zu Jever,Elisabethufer 18,Jever,Niedersachsen,,Germany,49-(0)4461-/-13-0,
559,Front Street Brewery,208 East River Drive,Davenport,Iowa,52801,United States,1-563-322-1569,
560,Frontwaters Restaurant and Brewing,,Marblehead,Ohio,,United States,,
561,Frstliche Brauerei Thurn Und Taxis Regensburg,Waffnergasse 6-8,Regensburg,Bayern,,Germany,49-(0)9451-/-412,
562,Full Sail Brewing #1,506 Columbia Street,Hood River,Oregon,97031,United States,1-541-386-2281,
563,"Fuller, Smith & Turner PBC",Chiswick Lane South,London,London,,United Kingdom,44-(0208)-996-2000,http://www.fullers.co.uk/
564,FÃƒÂ¼rstlich FÃƒÂ¼rstenbergische Brauerei,Postplatz 1-4,Donaueschingen,Baden-Wrttemberg,,Germany,49-(0)771-/-86-0,
565,G. Heileman Brewing,,La Crosse,Wisconsin,,United States,,
566,Gaslight Brewery,15 South Orange Avenue,South Orange,New Jersey,7079,United States,1-973-762-7077,
567,Gasthaus & Gosebrauerei Bayerischer Bahnhof,Bayerischer Platz 1,Leipzig,Sachsen,,Germany,49-(0)341-/-1245760,
568,Gasthaus-Brauerei Max & Moritz,Weinbichl 6,Kressbronn am Bodensee,Baden-Wrttemberg,,Germany,49-(0)7543-/-6508,
569,Gasthof-Brauerei zum Frohsinn,Romanshornerstrasse 15,Arbon,,,Switzerland,41-71-474-84-84,
570,Gatz Brauhaus,,Dsseldorf,Nordrhein-Westfalen,,Germany,,
571,George Bateman and Son Ltd.,Mill Lane,Skegness,Lincoln,,United Kingdom,44-(01754)-880317,
572,George Gale & Company,,Portsmouth,Hampshire,,United Kingdom,,
573,Gilde Brauerei,Hildesheimer Strae 132,Hannover,Niedersachsen,,Germany,49-(0)511-/-9808-0,
574,Glacial Lakes Brewing,,New York Mills,Minnesota,,United States,,
575,Glacier Brewhouse,"737 W. 5th Ave., Suite 110",Anchorage,Alaska,99501,United States,(907) 274-2739,http://www.glacierbrewhouse.com/
576,Glen Ellyn Sports Brew,,Glen Ellyn,Illinois,,United States,,
577,Glenwood Canyon Brewing Company,402 Seventh Street,Glenwood Springs,Colorado,81601,United States,1-970-945-1276,
578,Gold Coast Brewery,,Sanctuary Cove,Queensland,,Australia,,
579,Gold Crown Brewing,71 King Street North,Waterloo,Ontario,0,Canada,1-519-886-2071,
580,Golden City Brewery,920 Twelfth Street,Golden,Colorado,80401,United States,1-303-279-8092,
581,Golden Gate Park Brewery,,San Francisco,California,,United States,,
582,Golden Pacific Brewing,,Berkeley,California,,United States,,
583,Golden Prairie Brewing,2536 North Elston Avenue,Chicago,Illinois,60647,United States,1-773-862-0106,
584,Golden Valley Brewery and Pub,980 NE Fourth Street,McMinnville,Oregon,97128,United States,1-503-472-2739,http://www.goldenvalleybrewery.com/
585,Goose Island Beer Company - Clybourn,1800 North Clybourn Avenue,Chicago,Illinois,60614,United States,1-800-466-7363,
586,Goose Island Beer Company - Fulton Street,1800 West Fulton Street,Chicago,Illinois,60612,United States,1-800-466-7363,
587,Gordash Brewing Company,3804 S.W 30th Ave,Fort Lauderdale,Florida,33312,United States,(954) 261-0668,http://holymackerelbeers.com/
588,Gordon Biersch Brewing,357 East Taylor Street,San Jose,California,95112,United States,1-408-278-1008,http://www.gordonbiersch.com/brewery
589,Gore Range Brewery,105 Edwards Village Boulevard,Edwards,Colorado,81632,United States,1-970-926-2739,
590,Gottberg Brew Pub,2804 13th Street,Columbus,Nebraska,68601,United States,1-402-562-6488,
591,Govnor's Public House,220 North Randall Road,Lake In The Hills,Illinois,60156,United States,1-847-658-4700,
592,Grand Lake Brewing,915 Grand Avenue,Grand Lake,Colorado,80447,United States,1-970-627-1711,
593,Grand Teton Brewing #1,1295 North West Street,Wilson,Wyoming,83014,United States,1-307-733-9000,
594,Grand Teton Brewing #2,430 Old Jackson Highway,Victor,Idaho,83455,United States,1-208-787-9000,http://www.grandtetonbrewing.com/
595,Granite City Food & Brewery - Omaha,1001 North 102nd Street,Omaha,Nebraska,68114,United States,1-402-393-5000,
596,Granite City Food & Brewery - Saint Cloud,3945 Second Street South,Saint Cloud,Minnesota,56301,United States,1-320-203-9000,
597,Granville Island Brewing,1125 Richter Street,Kelowna,British Columbia,,Canada,,
598,Granville Island Brewing Company,1441 Cartwright Street,Vancouver,British Columbia,0,Canada,1-604-687-2739,
599,Gray Brewing,2424 West Court Street,Janesville,Wisconsin,53545,United States,1-608-752-3552,
600,Great Basin Brewing Company,846 Victorian Ave,Sparks,Nevada,89431,United States,(775) 355-7711,http://greatbasinbrewingco.com
896,Mussel Inn,Onekaka,Takaka,,,New Zealand,64-(03)-525-9241,
601,Great Bear Brewing,238 North Boundary Street,Wasilla,Alaska,99654,United States,1-907-373-4782,
602,Great Dane Pub and Brewing #1,123 East Doty Street,Madison,Wisconsin,53703,United States,1-608-284-0000,
603,Great Dane Pub and Brewing #2,2980 Cahill Main,Fitchburg,Wisconsin,53711,United States,1-608-442-9000,
604,Great Divide Brewing,2201 Arapahoe Street,Denver,Colorado,80205,United States,1-303-296-9460,http://www.greatdivide.com/
605,Great Lakes Brewing,2516 Market Avenue,Cleveland,Ohio,44113,United States,1-216-771-4404,http://www.greatlakesbrewing.com
606,Great Northern Tavern and Brewery,,Keystone,Colorado,,United States,,
607,Great Waters Brewing Company,426 St.Peter Street,Saint Paul,Minnesota,55102,United States,1-651-224-2739,
608,Green Bay Brewing,313 Dousman Street,Green Bay,Wisconsin,54303,United States,1-888-604-2337,
609,Green Flash Brewing,1430 Vantage Court #104A,Vista,California,92083,United States,1-760-597-9012,http://www.greenflashbrew.com
610,Green Mill Brewing - Saint Paul,57 Hamline Avenue South,Saint Paul,Minnesota,55105,United States,1-651-698-0353,
611,Green Mountain Beverage,153 Pond Lane,Middlebury,Vermont,5753,United States,1-802-873-9045,http://www.gmbeverage.com/
612,Greene King,Westgate Street,Bury St. Edmunds,Suffolk,,United Kingdom,44-(01284)-763222,
613,Greenshields Brewery and Pub,,Raleigh,North Carolina,,United States,,
614,Grizzly Bay Brewing,,Suisun City,California,,United States,,
615,Grizzly Peak Brewing,120 West Washington Street,Ann Arbor,Michigan,48104,United States,1-734-741-7325,
616,Grolsche Bierbrouwerij,Brouwerslaan 1,Enschede,Overijssel,7548 XA,Netherlands,+31-(0)53-4833333,http://www.grolsch.com
617,Grumpy Troll Restaurant and Brewery,105 South Second Street,Mount Horeb,Wisconsin,53572,United States,1-608-437-2739,
618,Grupo Modelo,,Mexico City,,,Mexico,,http://www.gmodelo.com.mx/
619,Gulpener Bierbrouwerij,Rijksweg 16,Gulpen,,0,Netherlands,31-043-4507575,
620,Haarlems Biergenootschap Jopen,R Pereboomweg 13 achter,Haarlem,,,Netherlands,31-23-533-41-14,
621,Hacker-Pschorr Bru,,Mnchen,Bayern,,Germany,,
622,Hair of the Dog Brewing,4509 SE 23rd Avenue,Portland,Oregon,97202,United States,1-503-232-6585,
623,Hale's Ales #3,4301 Leary Way NW,Seattle,Washington,98107,United States,1-206-706-1544,
624,Half Moon Bay Brewing,390 Capistrano Road,Princeton by the Sea,California,94019,United States,1-650-728-2739,
625,Ham's Restaurant and Brewhouse,701 Evans Street,Greenville,North Carolina,27834,United States,1-252-830-2739,
626,Hambleton Ales,Melmerby Green Road,Melmerby,North Yorkshire,,United Kingdom,44-(01765)-640108,
627,Hampshire Brewery,6-8 Romsey Industrial Estate,Romsey,Hampshire,,United Kingdom,44-(01794)-830529,
628,Hannen Brauerei,,Mnchengladbach,Nordrhein-Westfalen,,Germany,,
629,Hansa Bryggeri,Kokstaddalen 3,Bergen,,,Norway,47-55-99-77-00,
630,Hanssens Artisanal,Vroenenbosstraat 15,Dworp,Vlaams Brabant,,Belgium,32-02-/-380-31-33,
631,Hapa*s Brew Haus and Restaurant,,Kihei,Hawaii,,United States,,
632,Harbor City Brewing,535 West Grand Avenue,Port Washington,Wisconsin,53074,United States,1-262-284-3118,
633,Harmon Brewing Company,1938 Pacific Avenue,Tacoma,Washington,98402,United States,1-253-383-2739,http://harmon.harmonbrewingco.com/
634,Harpoon Brewery - Boston,306 Northern Avenue,Boston,Massachusetts,2210,United States,1-888-HARPOON,http://www.harpoonbrewery.com
635,Harpoon Brewery - Windsor,336 Ruth Carney Drive,Windsor,Vermont,5089,United States,1-802-674-5491,http://www.harpoonbrewery.com/
636,Harvest Moon Brewery / Cafe,392 George Street,New Brunswick,New Jersey,8901,United States,1-732-249-6666,
637,Harvey & Son (Lewes),6 Cliffe High Street,Lewes,East Sussex,,United Kingdom,44-(01273)-480209,
638,Harviestoun Brewery,Hillfoots Business Village,Alva,Scotland,,United Kingdom,44-(01259)-769100,
639,Hasserder Brauerei,Auerhahnring 1,Wernigerode,Sachsen-Anhalt,,Germany,49-(0)3943-/-9360,
640,Hausbrauerei Zum Schlssel,Bolkerstrae 41-47,Dsseldorf,Nordrhein-Westfalen,,Germany,49-(0)211-/-8289550,
641,Hawks Brewing,,Roseburg,Oregon,97470,United States,1-541-679-5778,
642,HC Berger Brewing,,Fort Collins,Colorado,,United States,,
643,Heartland Brewery Union Square,,New York,New York,10003,United States,1-212-645-3400,http://www.heartlandbrewery.com/
644,Heavenly Daze Brewery and Grill,,Denver,Colorado,,United States,,
645,Heavyweight Brewing,,Ocean,New Jersey,,United States,,
646,Heineken HungÃƒÂ¡ria,,Sopron,,,Hungary,,http://www.heinekenhungaria.hu/
647,Heineken International,,,,,Netherlands,,http://www.heineken.com/
648,Heineken Ireland,Lady's Well Brewery,Cork,,,Ireland,353-21-450-3371,
649,Heineken Switzerland,Haldenstrasse 69,Winterthur,,,Switzerland,41-052-/-264-41-41,
650,Heller Bru Trum,Dominikanerstrae 6,Bamberg,Bayern,,Germany,49-(0)951-/-56060,
651,Hereford & Hops Restaurant and Brewpub #1,624 Ludington Street,Escanaba,Michigan,49829,United States,1-906-789-1945,
652,Hereford & Hops Steakhouse and Brewpub #3,2201 Sherman Street,Wausau,Wisconsin,54401,United States,1-715-849-3700,
653,Herkimer Pub & Brewery,2922 Lyndale Avenue South,Minneapolis,Minnesota,55408,United States,1-612-821-0101,
654,Hida Takayama Brewing Agricultural Company,999 Matsumoto-cho,Takayama,Chubu,,Japan,81-0577-35-0365,
655,High Desert Brewing Co.,1201 W. Hadley Ave.,Las Cruces,New Mexico,88005,United States,(575) 525-6752,http://www.highdesertbrewingco.com/
656,High Falls Brewing,445 St.Paul Street,Rochester,New York,14605,United States,1-585-263-9446,
657,High Point Wheat Beer Company,22 Park Place,Butler,New Jersey,7405,United States,(973) 838-7400,http://www.ramsteinbeer.com/
658,Highland Brewing Company,12 Old Charlotte Highway,Asheville,North Carolina,28803,United States,(828) 299-7223,http://www.highlandbrewing.com/
659,Hirschbru Privatbrauerei Hss,Grntenstrae 7,Sonthofen,Bayern,,Germany,49-(0)8321-/-6633-0,
660,Hite Brewery,,Seoul,,,"Korea, Republic of",,
661,Hochstiftliches Brauhaus in Bayern,Brckenauer Strae 6,Motten,Bayern,,Germany,49-(0)9748-/-71-0,
662,Hoepfner Privatbrauerei,Haid-und-Neu-Strae 18,Karlsruhe,Baden-Wrttemberg,,Germany,49-(0)721-/-6183-0,
663,Hofbru Kaltenhausen Salzachtal,Salzachtal Bundesstrae Nord 37,Hallein,,,Austria,43-0-62-45/795-0,
664,Hofbruhaus Traunstein,Hofgasse 6-11,Traunstein,Bayern,,Germany,49-(0)861-/-98866-0,
665,Hoffbrau Steaks Brewery #1,,Addison,Texas,,United States,,
666,Hoffbrau Steaks Brewery #2,,Dallas,Texas,,United States,,
667,Hofmark Brauerei,Hofmarkstrae 15,Cham,Bayern,,Germany,49-(0)9971-/-3301,
668,Holsten-Brauerei,Holstenstrae 224,Hamburg,Hamburg,,Germany,49-(0)40-/-381010,
669,Hook & Ladder Brewing Company,8113 Fenton St.,Silver Spring,Maryland,20910,United States,301.565.4522,http://www.hookandladderbeer.com
670,Hook Norton Brewery,Brewery Lane,Hook Norton,Oxford,,United Kingdom,44-(01608)-730384,
671,Hop Back Brewery,Unit 21-24 Batten Road Industrial Estate,Salisbury,Wiltshire,,United Kingdom,44-(01725)-510986,
672,Hoppers Seafood & Grill,890 East Fort Union Boulevard,Midvale,Utah,84047,United States,1-801-566-0424,
673,Hoppin Frog Brewery,1680-F East Waterloo Rd.,Akron,Ohio,44306,United States,(330) 352-4578,http://www.hoppinfrog.com/
674,Hoppy Brewing Company,6300 Folsom Boulevard,Sacramento,California,95819,United States,1-916-451-4677,http://www.hoppy.com
675,Hops Grillhouse & Brewery - Cherry Creek,149 Steele Street,Denver,Colorado,80206,United States,1-303-377-0909,
676,Hops Haven Brew Haus,1327 North 14th Street,Sheboygan,Wisconsin,53081,United States,1-920-457-4677,
677,HopTown Brewing,3015-D Hopyard Road,Pleasanton,California,94588,United States,1-925-426-1450,
678,Hopworks Urban Brewery,2944 SE Powell Blvd,Portland,Oregon,97202,United States,(503) 201-8957,http://hopworksbeer.com/
679,Hornsby's Pubdrafts Ltd.,600 Yosemite Boulevard,Modesto,California,,United States,,
680,HP Bulmer,The Cider Mills,Hereford,Hereford and Worcester,,United Kingdom,44-01432-352000,
681,Htt-Brauerei Bettenhuser,Knallhtte,Baunatal,Hessen,,Germany,49-(0)561-/-492076,
682,Hubcap Brewery and Kitchen,,Vail,Colorado,,United States,,
683,Hudepohl-Schoenling Brewing,"10921 Reed Hartman Highway, Suite 329",Cincinnati,Ohio,45242,United States,1-513-984-6910,
684,Hue Brewery,Hue,Hue,,,Viet Nam,,
1419,Uehara Shuzou Co. Ltd. / Echigo Beer Pub,Niigata-ken Nishikanbara-gun,,, 953-0076,Japan,+81 0256-72-0640,http://www.echigo-beer.jp/
686,Humboldt Brewing,856 10th Street,Arcata,California,95521,United States,1-707-826-2739,http://www.humboldtbrews.com/
687,ICOBES b.v.b.a.,Durmakker 23,Evergem,Oost-Vlaanderen,,Belgium,32-(0)9-/-253-61-82,
688,Idaho Brewing,,Idaho Falls,Idaho,,United States,,
689,Illinois Brewing,102 North Center Street #111,Bloomington,Illinois,61701,United States,1-309-829-2805,
690,InBev,Brouwerijplein 1,Leuven,,3000,Belgium,,http://www.inbev.com
691,Independence Brew Pub,1150 Filbert Street,Philadelphia,Pennsylvania,19107,United States,1-215-922-4292,http://www.independencebrewpub.com/
692,Independence Brewing Co,3913 Todd Lane #607,Austin,Texas,78744,United States,,http://www.independencebrewing.com/
693,Indian Wells Brewing,2565 North Highway 14,Inyokern,California,93527,United States,1-760-377-5989,
694,Industrias La Constancia ILC,Avenida Independencia No.526,San Salvador,,,El Salvador,503-231-5444,
695,Industrija Piva I Sokova Trebjesa,Njegoseva 18,Nikic,,,Serbia and Montenegro,381-83-242-433,
696,Inveralmond Brewery,Inveralmond Way,Perth,Scotland,,United Kingdom,44-(01738)-449448,
697,Irish Brewing Company,Newbridge Industrial Estate,Newbridge,,,Ireland,,
698,Iron City Brewing Co.,3340 Liberty Ave.,Pittsburgh,Pennsylvania,15201,United States,412-682-7400,http://www.ironcitybrewingcompany.com/Default.aspx
699,Iron Hill Brewery - Newark,147 East Main Street,Newark,Delaware,19711,United States,1-302-266-9000,
700,Iron Hill Brewery - Wilmingon,620 South Madison Street,Wilmington,Delaware,19805,United States,1-302-658-8200,http://www.ironhillbrewery.com/
701,Iron Springs Pub & Brewery,765 Center Boulevard,Fairfax,California,94930,United States,1-415-485-1005,
702,Island Brewing Company,5049 Sixth Street,Carpinteria,California,93013,United States,1-805-745-8272,
703,Isle of Skye Brewing Company,The Pier,Isle of Skye,Scotland,,United Kingdom,44-(01470)-542477,
704,Issaquah Brewhouse,35-C West Sunset Way,Issaquah,Washington,98027,United States,1-425-557-1911,
705,Ithaca Beer Company,600 Elmira Road,Ithaca,New York,14850,United States,1-607-273-0766,
706,Jack Russell Brewing,2380 Larsen Drive,Camino,California,95709,United States,1-877-457-2725,
707,Jack's Brewing,39176 Argonaut Way,Fremont,California,94538,United States,1-510-796-2036,
708,Jacob Leinenkugel Brewing Company,1 Jefferson Avenue,Chippewa Falls,Wisconsin,54729,United States,1-715-723-5557,http://www.leinie.com/welcome.html
709,Jaipur Restaurant and Brewpub,10922 Elm Street,Omaha,Nebraska,68144,United States,1-402-392-7331,
710,James Page Brewing,1500 Jackson Street,Minneapolis,Minnesota,55413,United States,1-612-789-0400,
711,Jarre Creek Ranch Brewing,,Castle Rock,Colorado,,United States,,
712,Jasper Ridge Brewery,1075 Country Lane,Ishpeming,Michigan,49849,United States,1-906-485-6017,
713,Jennings Brewery,Castle Brewery,Cockermouth,Cumbria,CA13 9NE,United Kingdom,0845 1297185,http://www.jenningsbrewery.co.uk/
714,Jever Brewery,,"Jever, Germany",,,Germany,,http://www.jever.de/
715,Jinro Coors Brewing,"Cheongwon Factory: 52, Joongsam-Ri, Hyundo-Myun",Seoul,,,"Korea, Republic of",82-(0)431-279-4702,
716,JJ Bitting Brewing,33 Main Street,Woodbridge,New Jersey,7095,United States,1-732-634-2929,
717,Jobber's Canyon Restaurant & Brewery,,Omaha,Nebraska,,United States,,
718,JoBoy's Brew Pub,87 Doe Run Rd,Manheim,Pennsylvania,17545,United States,,http://www.joboysbrewpub.com/
719,John Harvard's Brew House - Framingham,1 Worcester Road,Framingham,Massachusetts,1701,United States,1-508-875-2337,
720,John Harvard's Brew House - Harvard Square,33 Dunster Street,Cambridge,Massachusetts,2138,United States,1-617-868-3585,
721,John Harvard's Brewhouse - Wilmington,,Wilmington,Delaware,,United States,,
722,John Martin sa,rue du cerf,Genval,,1332,Belgium,,http://www.anthonymartin.be/
723,Jolly Pumpkin Artisan Ales,3115 Broad Street,Dexter,Michigan,48130,United States,1-734-426-4962,http://www.jollypumpkin.com
724,Joshua Huddy's Brew Pub and Grill,,Toms River,New Jersey,8753,United States,1-732-240-3640,
725,JT Whitney's Brewpub and Eatery,674 South Whitney Way,Madison,Wisconsin,53711,United States,1-608-274-1776,
726,Jurupa Valley Brewing,,Riverside,California,,United States,,
727,JW Lees and Co (Brewers) Ltd.,Middleton Junction,Manchester,Manchester,,United Kingdom,44-(0161)-6432487,
728,Kaiser-Bru,Oberer Markt 1,Neuhaus,Bayern,,Germany,49-(0)9156-/-88-0,
729,Kaiserdom Privatbrauerei Bamberg,Breitckerstrae 9,Bamberg,Bayern,,Germany,49-(0)951-/-60450,
730,Kalamazoo Brewing,355 East Kalamazoo Avenue,Kalamazoo,Michigan,49007,United States,1-269-382-2338,
731,Karl Strauss Brewery Gardens - Sorrento Mesa,9675 Scranton Road,San Diego,California,92121,United States,1-858-587-2739,
732,Karlovacka Pivovara,Dubovac 22,Karlovac,,0,Croatia,385-47-451-300,
733,Keesmann Bru,Wunderburg 5,Bamberg,Bayern,,Germany,49-(0)951-/-26646,
734,Keg Microbrewery & Restaurant,,Stevens Point,Wisconsin,,United States,,
735,Keihan Uji Kotsu,,Uji,Kinki,,Japan,81-0774-22-2359,
736,Kelmer's Brewhouse,,Santa Rosa,California,,United States,,
737,Kentucky Hemp Beer Company,,Lexington,Kentucky,,United States,,
738,Kenya Breweries,PO Box 30161,Nairobi,,,Kenya,254-864000,
739,Kessler Brewing,,Helena,Montana,,United States,,
740,King and Barnes,,Horsham,West Sussex,,United Kingdom,,
741,"Kirin Brewery Company, Ltd",,,,,Japan,,http://www.kirin.com/
742,Kiuchi Shuzou Goushi Kaisya,"1257, Kounsosu",Ibaraki,Kanto,,Japan,81-029-298-0105,
743,Kleinbrouwerij de Glazen Toren,Glazentorenweg 11,Erpe-Mere,Oost-Vlaanderen,,Belgium,32-(0)53-83-68-17,
744,Klosterbrauerei Neuzelle,Brauhausplatz 1,Neuzelle,Brandenburg,,Germany,49-(0)33652-/-810-0,
745,Klosterbrauerei Weltenburg,Heitzerstrae 2,Regensburg,Bayern,,Germany,49-(0)941-/-2001-0,http://www.weltenburger.de/
746,Klosterbru Bamberg,Obere Mhlbrcke 1-3,Bamberg,Bayern,,Germany,49-(0)951-/-57722,
747,Knig Brauerei,Friedrich-Ebert-Strae 255-263,Duisburg,Nordrhein-Westfalen,,Germany,49-(0)203-/-455-0,
748,Knig Ludwig Schlobrauerei Kaltenberg,Augsburgerstrae 41,Frstenfeldbruck,Bayern,,Germany,49-(0)8141-/-2430,
749,Knigsbacher Brauerei,An der Knigsbach 8,Koblenz,Rheinland-Pfalz,,Germany,49-(0)261-/-1397-0,
750,Knigsegger WalderBru,Hauptstrae 6,Knigseggwald,Baden-Wrttemberg,,Germany,49-(0)7587-/-9504-0,
751,Kona Brewing,75-5629 Kuakini Highway,Kailua-Kona,Hawaii,96740,United States,1-808-334-1133,http://www.konabrewingco.com
752,KÃƒÂ¶stritzer Schwarzbierbrauerei,Heinrich-Schtz-Strae 16,Bad KÃƒÂ¶stritz,ThÃƒÂ¼ringen,,Germany,49-(0)36605-/-83-0,
753,KrÃƒÂ¡lovskÃƒÂ½ pivovar KruÃ…Â¡ovice,270 53,KruÃ…Â¡ovice,,,Czech Republic,313 569 229,http://www.krusovice.cz/
754,Krogh's Restaurant and Brewpub,23 White Deer Plaza,Sparta,New Jersey,7871,United States,1-973-729-8428,
755,Kross Brewing,,Morrisville,Vermont,,United States,,
756,Kuhnhenn Brewing,5919 Chicago Road,Warren,Michigan,48092,United States,1-586-979-8361,http://www.kbrewery.com/
757,Kulmbacher Brauerei AG,Lichtenfelser Strae 9,Kulmbach,Bayern,,Germany,49-(0)9221-/-705-0,
758,Kulmbacher Mnchshof Bru,,Kulmbach,Bayern,,Germany,,
759,La Jolla Brew House,7536 Fay Avenue,La Jolla,California,92037,United States,1-858-456-6279,
760,La Jolla Brewing,,La Jolla,California,,United States,,
761,Labatt / Keith's Brewery / Oland Breweries,3055 Agricola Street,Halifax,Nova Scotia,0,Canada,1-902-453-1867,
762,Labatt Ontario Breweries,150 Simcoe Street,London,Ontario,0,Canada,1-519-663-5050,
763,LaConner Brewing,117 South First Street,LaConner,Washington,98257,United States,1-360-466-1415,http://www.insidelaconner.com/
764,Lafayette Brewing,622 Main Street,Lafayette,Indiana,47901,United States,1-765-742-2591,
765,Lagunitas Brewing Company,1280 North McDowell Boulevard,Petaluma,California,94954,United States,1-707-769-4495,http://www.lagunitas.com/
766,Lake Louie Brewing,7556 Pine Road,Arena,Wisconsin,53503,United States,1-608-753-2675,
767,Lake Placid Pub & Brewery,813 Mirror Lake Drive,Lake Placid,New York,12946,United States,518-523-3813,http://www.ubuale.com/
768,Lake Superior Brewing,2711 West Superior Street,Duluth,Minnesota,55806,United States,1-218-723-4000,
769,Lakefront Brewery,1872 North Commerce Street,Milwaukee,Wisconsin,53212,United States,1-414-372-8800,http://www.lakefrontbrewery.com/index.html
770,Lammin Sahti Oy,Liesontie 554,Lammi,,0,Finland,358-3-633-5444,
771,Lancaster Brewing Co.,302 N. Plum St.,Lancaster,Pennsylvania,17602,United States,717-391-6258,http://www.lancasterbrewing.com/index.html
772,Lanchester Brewing,Durham DH7 0NT,Durham,Durham,,United Kingdom,,
773,Lang Creek Brewry,655 Lang Creek Road,Marion,Montana,59925,United States,(406) 858-2200,http://langcreekbrewery.com/
774,Latrobe Brewing,,Latrobe,Pennsylvania,,United States,,
775,Laughing Dog Brewing,55 Emerald Industrial Park Road,Ponderay,Idaho,83852,United States,208-263-9222,http://www.laughingdogbrewing.com/
776,Lazy Magnolia Brewing Company,7030 Roscoe Turner Rd,Kiln,Mississippi,39556,United States,(228) 467-2727,http://www.lazymagnolia.com/
777,Le Cheval Blanc,809 Rue Ontario Est,Montreal,Quebec,0,Canada,1-514-522-0211,
778,Left Coast Brewing,1245 Puerta del Sol,San Clemente,California,92673,United States,1-949-361-9972,
779,Left Hand Brewing Company,1265 Boston Avenue,Longmont,Colorado,80501,United States,1-303-772-0258,http://www.lefthandbrewing.com/
780,Legacy Brewing Co.,545 Canal Street,Reading,Pennsylvania,19602,United States,(610) 376-9996,http://www.legacybrewing.com
781,Legends Brewhouse & Eatery of Green Bay,2840 Shawano Avenue,Green Bay,Wisconsin,54313,United States,1-920-662-1111,
782,Leinenkugel's Ballyard Brewery,,Phoenix,Arizona,,United States,,
783,Lewis & Clark Brewing Company,939 Getchell Street,Helena,Montana,59601,United States,(406) 442-5960,http://lewisandclarkbrewing.com/
784,Liberty Steakhouse and Brewery,1321 Celebrity Circle,Myrtle Beach,South Carolina,29577,United States,843.626.4677,http://www.libertysteakhouseandbrewery.com/
785,Licher Privatbrauerei,In den Hardtberggrten,Lich,Hessen,,Germany,49-(0)6404-/-82-0,
786,Liefmans Breweries,Wontergemstraat 42,Dentergem,West-Vlaanderen,,Belgium,32-051-63-36-81,
787,Lift Bridge Brewery,,Stillwater,Minnesota,,United States,,http://www.liftbridgebrewery.com/
788,Lighthouse Brewing,2 - 836 Devonshire Road,Victoria,British Columbia,0,Canada,1-888-862-7500,
789,Lightning Boy Brewery,,Belgrade,Montana,,United States,,
790,Limburg Beer Company,500 Williams Street,Hawkes Bay,,,New Zealand,64-(06)-878-5542,
791,Lion Brewery Ceylon Ltd.,"No-254, Colombo Road",Colombo,,,Sri Lanka,94-331535-42,http://www.lionbeer.com/
792,Lion Brewery Inc.,700 North Pennsylvania Blvd.,Wilkes Barre,Pennsylvania,18705,United States,(800) 233-8327,http://www.lionbrewery.com/
793,Lion Nathan Australia  Hunter Street,"Level 15, 20 Hunter Street",Sydney,New South Wales,,Australia,61-(02)-9320-2200,
794,Listermann Brewing Company,1621 Dana Ave.,Cincinnati,Ohio,45212,United States,(513) 731-1130,http://www.listermann.com/
795,Little Apple Brewing,1110 Westloop Center,Manhattan,Kansas,66502,United States,1-785-539-5500,
796,Little Creatures Brewery,40 Mews Road,Fremantle,WA,6160,Australia,+61 8 9430 5155,http://www.littlecreatures.com.au/
797,Live Oak Brewing,3301-B East Fifth Street,Austin,Texas,78702,United States,1-512-385-2299,http://www.liveoakbrewing.com/
798,Loaf and Stein Brewing,,Eagle River,Wisconsin,,United States,,
799,Lobkowiczk Pivovar Vysok Chlumec,CZ-262 52 Vysok Chlumec,Vysok Chlumec,,,Czech Republic,420-318-865-321,
800,Logjam Microbrewery,B-4864 Cty Rd F,Unity,Wisconsin,54488,United States,715-223-4336,http://www.logjambeer.com/
801,Long Trail Brewing Co,Route 4 & 100A,Bridgewater Corners,Vermont,5035,United States,802) 672-5011,http://www.longtrail.com/
802,Long Valley Pub & Brewery,1 Fairmount Road,Long Valley,New Jersey,7853,United States,1-908-876-1122,
803,Lost Coast Brewery,617 Fourth Street,Eureka,California,95501,United States,1-707-445-4484,http://www.lostcoast.com/
804,LÃƒÂ¶wenbrÃƒÂ¤u Brauerei,Nymphenburger StraÃƒÅ¸e 4,MÃƒÂ¼nchen,Bayern,,Germany,49-(0)89-/-5200-0,
805,Lwenbru Munich,Toronto ON,Toronto,Ontario,,Canada,,
806,Lwenbru Zrich,Brandschenkestrasse 150,Zrich,,,Switzerland,,
807,Maclay and Co.,,Clackmannan,Scotland,,United Kingdom,,
808,Mad Anthony Brewing,2002 Broadway,Fort Wayne,Indiana,46802,United States,1-260-426-2537,
809,Mad Crab Restaurant and Brewery,,Strongsville,Ohio,,United States,,
810,Mad River Brewing,195 Taylor Way,Blue Lake,California,95525,United States,1-707-668-4151,
811,Mad River Brewing Company,101 Taylor Way,Blue Lake,California,95525,United States,707-668-4151,http://www.madriverbrewing.com/
812,Magic Hat,5 Bartlett Bay Road,South Burlington,Vermont,5403,United States,1-802-658-2739,http://www.magichat.net/
813,Magnolia Pub and Brewery,1398 Haight Street,San Francisco,California,94117,United States,1-415-864-7468,http://www.magnoliapub.com/
814,Main Street Alehouse,333 North Main Avenue,Gresham,Oregon,97030,United States,1-503-669-0569,
815,Main Street Beer Company #1,,Richmond,Virginia,,United States,,
816,Main Street Brewery,300 North Main Street,Corona,California,92880,United States,1-951-371-1471,
817,Main Street Brewing,,Dallas,Texas,,United States,,
818,"Main Street Station Casino, Brewery and Hotel",200 North Main Street,Las Vegas,Nevada,89101,United States,1-800-713-8933,
819,Maisel Bru,Moosstrae 46,Bamberg,Bayern,,Germany,49-(0)951-/-91827-0,
820,Malt Shovel Brewery,99 Pyrmont Bridge Road,Camperdown,New South Wales,,Australia,61-(02)-9519-3579,http://www.maltshovel.com.au/
821,Mambo Beer,10920 North Port Washington Road,Mequon,Wisconsin,53092,United States,1-888-548-3754,
822,Mammoth Brewing,24 Lake Mary Road,Mammoth Lakes,California,93546,United States,1-760-934-2337,
823,Manayunk Brewery and Restaurant,4120 Main Street,Philadelphia,Pennsylvania,19127,United States,1-215-482-8220,http://www.manayunkbrewery.com/
824,Manhattan Beach Brewing,124 Manhattan Beach Boulevard,Manhattan Beach,California,90266,United States,1-310-378-2744,
825,Marble Brewery,111 Marble Ave NW,Albuquerque,New Mexico,87102,United States,505.243.2739,http://marblebrewery.com/
826,Margaritaville Brewing Company,,Jacksonville,Florida,32209,United States,(877) 742-7501,http://www.landsharklager.com/
827,Marin Brewing,1809 Larkspur Landing Circle,Larkspur Landing,California,94939,United States,1-415-461-4677,
828,Marine Pub & Brewhouse,5820 Marine Drive,Burnaby,British Columbia,0,Canada,1-604-435-2245,
829,Maritime Pacific Brewing,1514 NW Leary Way,Seattle,Washington,98107,United States,1-206-782-6181,
830,Marquette Harbor Brewery and Restaurant,119 South Front Street,Marquette,Michigan,49855,United States,1-906-228-3533,
831,Marshall Brewing Company,618 S. Wheeling Ave,Tulsa,Oklahoma,74104,United States,(918) 292-8781,http://marshallbrewing.com
832,Martini-Brauerei,Klnische Strae 94-104,Kassel,Hessen,,Germany,49-(0)561-/-7885-0,
833,Marzoni's Brick Oven & Brewing Co,165 Patchway Road,Duncansville,Pennsylvania,16635,United States,814-695-2931,http://www.marzonis.com/
834,Mash House Restaurant and Brewery,4150 Sycamore Dairy Road,Fayetteville,North Carolina,28303,United States,1-910-867-9223,
835,Matilda Bay Brewing,130 Stirling Highway,North Fremantle,Western Australia,,Australia,61-(08)-9430-0777,
836,Maui Brewing Co.,4405 Honoapiilani Highway #217,"Lahaina, Maui",Hawaii,96761,United States,808.669.3474,http://mauibrewingco.com/
837,Maumee Bay Brewing,27 Broadway,Toledo,Ohio,43602,United States,1-419-243-1302,
839,McCoy's Public House and Brewkitchen,4057 Pennsylvania Avenue,Kansas City,Missouri,64111,United States,1-816-960-0866,
840,McGuire's Irish Pub and Brewery - Pensacola,600 East Gregory Street,Pensacola,Florida,32501,United States,1-850-433-6789,
841,McKenzie Brew House,451 Wilmington-West Chester Pike,Glen Mills,Pennsylvania,19342,United States,1-610-361-9800,http://www.mckenziebrewhouse.com
842,McMenamins Mill Creek,13300 Bothell-Everett Highway #304,Mill Creek,Washington,98012,United States,1-425-316-0520,
843,McMullen & Sons,26 Old Cross,Hertford,Hertfordshire,,United Kingdom,44-(01992)-584911,
844,Meantime Brewing Company Limited,2 Penhall Road,Greenwich,London,SE7 8RX,United Kingdom,44-(020)-8293-1111,http://www.meantimebrewing.com/
845,Meckatzer Lwenbru,Meckatz 10,Heimenkirch,Bayern,,Germany,49-(0)8381-/-504-0,
846,Mehana Brewing,275 East Kawili Street,Hilo,Hawaii,96720,United States,1-808-934-8211,
847,Mendocino Brewing - Hopland,13351 Highway 101,Hopland,California,95449,United States,1-707-744-1361,
848,Mendocino Brewing - Saratoga Springs,,Saratoga Springs,New York,,United States,,http://www.mendobrew.com/
849,Mendocino Brewing - Ukiah,1601 Airport Road,Ukiah,California,95482,United States,1-707-463-2627,
850,Mercury Brewing Company,23 Hayward St.,Ipswich,Massachusetts,1938,United States,978-356-3329,http://www.mercurybrewing.com
851,Metropolitan Brewing,"5121 N Ravenswood Ave,",Chicago,Illinois,60640,United States,,http://www.metrobrewing.com/
852,Mia and Pia's Pizzeria and Brewhouse,3545 Summers Lane (restaurant),Klamath Falls,Oregon,97603,United States,1-541-884-4880,
853,Michigan Brewing,1093 Highview Drive,Webberville,Michigan,48892,United States,1-517-521-3600,http://www.michiganbrewing.com/
854,Mickey Finn's Brewery,412 North Milwaukee Avenue,Libertyville,Illinois,60048,United States,1-847-362-6688,
855,Mickey's Brewing Co.,,Milwaukee,Wisconsin,,United States,,http://www.mickeys.com
856,Microbrouwerij Achilles,Dulft 9A,Itegem,Antwerpen,,Belgium,,
857,Middle Ages Brewing,120 Wilkinson Street,Syracuse,New York,13204,United States,1-888-289-4250,http://www.middleagesbrewing.com/
858,Midnight Sun Brewing Co.,8111 Dimond Hook Drive,Anchorage,Alaska,99507,United States,1-907-344-1179,http://www.midnightsunbrewing.com/
859,Mikkeller,"Slien 2, 2. tv",KÃƒÂ¸benhavn,,,Denmark,45-4162-3489,http://www.mikkeller.dk/
860,Milagro Brewery and Grill,,Bernalillo,New Mexico,,United States,,
861,Mill Creek Brewpub,11 North Palouse,Walla Walla,Washington,99362,United States,1-509-522-2440,
862,Mill Steakhouse,5798 South Rapp Street,Littleton,Colorado,80120,United States,1-303-798-5280,
863,Miller Brewing,3939 W. Highland Blvd,Milwaukee,Wisconsin,53208,United States,(414) 931-2000,http://www.millerbrewing.com
864,Millrose Brewing,45 South Barrington Road,South Barrington,Illinois,60010,United States,1-847-382-7673,
865,Millstream Brewing,835 48th Avenue,Amana,Iowa,52203,United States,1-319-622-3672,
866,Milly's Tavern,500 Commercial Street,Manchester,New Hampshire,3102,United States,1-603-625-4444,
867,Milwaukee Ale House,233 North Water Street,Milwaukee,Wisconsin,53202,United States,1-414-226-2337,
868,Minhas Craft Brewery,1208 14th Avenue,Monroe,Wisconsin,53566,United States,1-608-325-3191,
869,Minneapolis Town Hall Brewery,1430 Washington Avenue South,Minneapolis,Minnesota,55454,United States,1-612-339-8696,http://www.townhallbrewery.com/
870,Minnesota Brewing,,Saint Paul,Minnesota,,United States,,
871,Minocqua Brewing Company,238 Lake Shore Drive,Minocqua,Wisconsin,54548,United States,1-715-356-2600,http://www.minocquabrewingcompany.com
872,Mishawaka Brewing,3703 North Main Street,Mishawaka,Indiana,46545,United States,1-574-256-9993,
873,Mission Springs Brewing,7160 Oliver Street,Mission,British Columbia,0,Canada,1-604-820-1009,
874,Mississippi Brewing Co.,,Utica,New York,11042,United States,,
875,Moab Brewery,686 South Main Street,Moab,Utah,84532,United States,1-435-259-6333,
876,Mogollon Brewing Company,4366 Huntington Dr,Flagstaff,Arizona,86001,United States,,http://www.mogbrew.com/
877,Mohrenbrauerei August Huber,Doktor-Waibel-Strae 2,Dornbirn,,,Austria,43-0-55-72-/-37-77-0,
878,Molson Breweries of Canada,175 Bloor Street East,Toronto,Ontario,0,Canada,1-416-975-1786,
879,Montana Brewing,113 North Broadway,Billings,Montana,59101,United States,1-406-252-9200,
880,Monte Carlo Casino and Brewpub,,Las Vegas,Nevada,89109,United States,1-702-730-7438,
881,Monteith's Brewing Co.,Cnr Turumaha and Herbert St,Greymouth,,,New Zealand,,http://www.monteiths.com/nz/
882,Moon River Brewing Company,21 W. Bay St.,Savannah,Georgia,31401,United States,912.447.0943,http://www.moonriverbrewing.com/
883,Moonlight Brewing,PO Box 316,Fulton,California,95439,United States,1-707-528-2537,
884,Moorhouse's Brewery (Burnley),4 Moorhouse Street,Burnley,Lancashire,,United Kingdom,44-(01282)-422864,
885,Moose's Tooth Pub and Pizzeria,3300 Old Seward Highway,Anchorage,Alaska,99503,United States,(907) 258-2537,http://www.moosestooth.net/
886,Moosehead Breweries,89 Main Street West,Saint John,New Brunswick,0,Canada,1-506-635-7000,
887,Moosehead Breweries Ltd.,"89 Main Street, PO Box 3100, Station B",Saint John,New Brunswick,,Canada,(506) 635-7000,http://www.moosehead.ca/
888,Moosejaw Pizza & Dells Brewing Company,110 Wisconsin Dells Parkway South,Wisconsin Dells,Wisconsin,53965,United States,1-608-254-1122,
889,Mordue Brewery,21A Oak Road,Wallsend,Tyne and Wear,,United Kingdom,44-(0191)-2961879,
890,Morland and Co.,,Abingdon,Oxford,,United Kingdom,,
891,Mountain Sun Pub & Brewery,1535 Pearl Street,Boulder,Colorado,80302,United States,1-303-546-0886,
892,Moylan's Brewery & Restaurant,15 Rowland Way,Novato,California,94945,United States,1-415-898-4677,http://www.moylans.com/
893,moylans Brewing company,,Novato,California,,United States,,http://www.moylans.com/
894,Mudshark Brewing,210 Swanson Avenue,Lake Havasu City,Arizona,86403,United States,1-928-453-2981,http://www.mudsharkbrewingco.com/
895,Murphy's Wagon Wheel,107 North Lincoln Avenue,Hastings,Nebraska,68901,United States,1-402-463-3011,
897,Myanmar Brewery and Distillery,"No. 45, No. 3 Trunk Road",Yangon,,,Myanmar,95-1-636258,
898,Mythos Breweries S.A.,"Industrial Area, Thessaloniki",,Sindos,570 22,Greece,,http://www.mythosbrewery.gr/
899,Namaqua Brewing,,Loveland,Colorado,,United States,,
900,Namibia Breweries,PO Box 206,Windhoek,,,Namibia,,
901,Nebraska Brewing Company,7474 Towne Center Parkway #101,Papillion,Nebraska,68046,United States,1-402-934-7100,
902,Nelson Brewing,512 Latimer Street,Nelson,British Columbia,0,Canada,1-250-352-3582,
903,Nethergate Brewery Co Ltd,The Street,Pentlow,Essex,,United Kingdom,44-(01787)-283220,
904,New Albanian Brewing,3312 Plaza Drive,New Albany,Indiana,47150,United States,1-812-949-2804,http://www.newalbanian.com
905,New Belgium Brewing,500 Linden Street,Fort Collins,Colorado,80524,United States,1-888-622-4044,http://www.newbelgium.com/
906,New Century Brewing Company,PO Box 1498,Boston,Massachusetts,2117,United States,1-781-963-4007,
907,New Glarus Brewing Company,2400 State Highway 69,New Glarus,Wisconsin,53574,United States,608-527-5850,http://www.newglarusbrewing.com/
908,New Holland Brewing Company,66 East Eighth Street,Holland,Michigan,49423,United States,1-616-355-6422,http://newhollandbrew.com
909,New River Brewing,2015 Afond Court,Atlanta,Georgia,30341,United States,1-770-841-2953,
910,New Road Brewhouse,,Collegeville,Pennsylvania,,United States,,
911,New Zealand Breweries Limited,,,,,New Zealand,,http://www.steinlager.co.nz/
912,Niagara Falls Brewing,6863 Lundy's Lane,Niagara Falls,Ontario,0,Canada,1-905-356-2739,
913,Nicolet Brewing,,Florence,Wisconsin,,United States,,
914,Nikenjayamochi Kadoya Honten Co.,,,,,Japan,,
915,Ninkasi Brewing,272 Van Buren St,Eugene,Oregon,97402,United States,877-7-NINKASI,http://www.ninkasibrewing.com/
916,Nodding Head Brewpub,1516 Sansom Street,Philadelphia,Pennsylvania,19102,United States,1-215-569-9525,http://www.noddinghead.com/
917,Nor'Wester Brewery and Public House,,Portland,Oregon,,United States,,
918,Nordsj Grdsbryggeri,,Motala,,,Sweden,,
919,North Coast Brewing Company,455 North Main Street,Fort Bragg,California,95437,United States,1-707-964-2739,http://www.northcoastbrewing.com/home.htm
920,North Country Brewery,141 South Main Street,Slippery Rock,Pennsylvania,16057,United States,(724)-794-BEER,http://www.northcountrybrewing.com
921,Northwest Brewwrks,,Kirkland,Washington,,United States,,
922,Northwoods Brewpub Grill,3560 Oakwood Mall Drive,Eau Claire,Wisconsin,54701,United States,1-715-552-0510,
923,NÃƒÂ¸gne ÃƒËœ - Det KompromisslÃƒÂ¸se Bryggeri A/S,Gamle Rygene Kraftstasjon,Grimstad,Lunde,,Norway,47-37-25-74-00,http://nogne-o.com/
924,O'Fallon Brewery,26 West Industrial Drive,O'Fallon,Missouri,63366,United States,1-636-474-2337,
925,O'Gara's Bar & Grill,146 Snelling Avenue North,Saint Paul,Minnesota,55104,United States,1-651-644-3333,
926,O'Grady's Brewery and Pub #1,,Arlington Heights,Illinois,,United States,,
927,O'Hanlon's Brewing Company Ltd.,Great Barton Farm,Exeter,Devon,,United Kingdom,44-(01404)-822412,
928,O'Hara's Brewpub and Restaurant,,Saint Cloud,Minnesota,,United States,,
929,Oak Creek Brewery,2050 Yavapai Dr,Sedona,Arizona,86336,United States,928-204-1300,http://oakcreekbrew.com/
930,Oaken Barrel Brewing,50 North Airport Parkway,Greenwood,Indiana,46143,United States,1-317-887-2287,http://www.oakenbarrel.com/
931,Oakham Ales,80 Westgate,Peterborough,Cambridge,,United Kingdom,44-(01733)-358300,
932,Oasis Brewery and Restaurant,,Boulder,Colorado,,United States,,
933,Oasis Brewery Annex,,Boulder,Colorado,,United States,,
934,Oconomowoc Brewing,,Oconomowoc,Wisconsin,,United States,,
935,Odell Brewing,800 East Lincoln Avenue,Fort Collins,Colorado,80524,United States,1-888-887-2797,
936,Oggi's Pizza and Brewing - Vista,425 South Melrose Drive,Vista,California,92083,United States,1-760-295-3581,
937,Ohio Brewing,,Niles,Ohio,,United States,,
938,Okanagan Spring Brewery,2801 - 27A Avenue,Vernon,British Columbia,0,Canada,1-800-663-7037,
939,Old City Brewing,603 West 13th Street #1A-345,Austin,Texas,78701,United States,1-512-448-4844,
940,Old Dominion Brewing Co.,1284 McD Drive,Dover,Delaware,19901,United States,(302) 678-4810,http://www.olddominion.com/
941,Old Hat Brewery,114 North Main Street,Lawton,Michigan,49065,United States,1-269-624-6445,
942,Olde Main Brewing,316 Main Street,Ames,Iowa,50010,United States,1-515-232-0553,
943,Olde Peninsula Brewpub and Restaurant,200 East Michigan Avenue,Kalamazoo,Michigan,49007,United States,1-269-343-2739,
944,Oldenberg Brewery,,Fort Mitchell,Kentucky,,United States,,
945,On Tap Bistro & Brewery,,San Diego,California,,United States,,
946,Onion Pub & Brewery,22221 Pepper Road,Lake Barrington,Illinois,60010,United States,1-847-381-7308,
947,Onopa Brewing,,Milwaukee,Wisconsin,,United States,,
948,Orchard Street Brewery,,Bellingham,Washington,,United States,,
949,Oregon Trader Brewing,,Albany,Oregon,,United States,,
950,Oregon Trail Brewery,341 SW Second Street,Corvallis,Oregon,97333,United States,1-503-758-3257,
951,Oriental Brewery,,,,,"Korea, Republic of",,
952,Original Basil T's,183 Riverside Avenue,Red Bank,New Jersey,7701,United States,1-732-842-5990,
953,Orkney Brewery,Quoyloo,Orkney,Scotland,,United Kingdom,44-(01856)-841802,http://www.orkneybrewery.co.uk/
954,Orlando Brewing,1301 Atlanta Avenue,Orlando,Florida,32806,United States,(407) 872-1117,http://www.orlandobrewing.com
955,Orlio Organic,5 Bartlett Bay Road,South Burlington,Vermont,5403,United States,(802) 864-9820,http://www.orlio.net/
956,Oskar Blues Grill and Brew,303 Main Street,Lyons,Colorado,80540,United States,1-303-823-6685,http://www.oskarblues.com/
957,Ostankinskij Pivovarennij Zavod,Ogorodnyj Pr. 20,Moskva,Moskva,,Russia,7-(095)-979-32-36,
958,Ottakringer Brauerei AG,Ottakringerstrasse 91,Wien,,,Austria,0043 (0) 1 491000,http://www.ottakringer.at/
959,Otter Creek Brewing & Wolaver's Organic Ales,793 Exchange Street,Middlebury,Vermont,5753,United States,1-888-473-0727,http://www.ottercreekbrewing.com/
960,Otto's Pub and Brewery,2105 N. Atherton St.,State College,Pennsylvania,16803,United States,814-867-6886,http://www.ottospubandbrewery.com/index.php
961,Oy Sinebrychoff AB,Sinebrychoffinaukio 1,Kerava,,,Finland,358-(09)-294-991,
962,Oyster Bar Bistro and Brewery,,Fort Wayne,Indiana,46825,United States,1-260-490-6755,
963,Pabst Brewing Company,PO Box 1661,San Antonio,Texas,78296,United States,1-800-935-2337,http://www.pabst.com/
964,Pacific Beach Brewhouse,,Pacific Beach,California,,United States,,
965,Pacific Coast Brewing,906 Washington Street,Oakland,California,94607,United States,1-510-836-2739,
966,Pacific Rim Brewing,9832 14th Avenue SW,Seattle,Washington,98106,United States,1-206-764-3844,
967,Palm Breweries,Steenhuffeldorp 3,Steenhuffel,Brabant,1840,Belgium,+32 (0)52 31 74 11,http://www.palmbreweries.com/
968,Palmetto Brewing,289 Huger Street,Charleston,South Carolina,29403,United States,1-843-937-0903,
969,Panther Brewing Company,Utica NY 13502,Utica,New York,13502,United States,1-800-568-2553,
970,Paper City Brewing Company,108 Cabot St.,Holyoke,Massachusetts,1040,United States,,
971,Park City Brewing,375 West 910 South,Heber City,Utah,84032,United States,1-435-654-5467,
972,Paulaner,,Munich,,,Germany,,http://www.paulaner.com/
973,Pearl Street Brewery,1401 Saint Andrew Street,La Crosse,Wisconsin,54603,United States,1-608-784-4832,
974,Pelican Pub & Brewery,33180 Cape Kiwanda Drive,Pacific City,Oregon,97135,United States,1-503-965-7007,http://www.pelicanbrewery.com/
975,Penn Brewery,800 Vinial St.,Pittsburgh,Pennsylvania,15212,United States,412-237-9400,http://www.pennbrew.com/
976,Pennichuck Brewing Company,"127 Elm St., Unit C",Milford,New Hampshire,3055,United States,(603) 672-2750,http://www.pennichuckbrewing.com/
977,Pennsylvania Brewing,800 Vinial Street,Pittsburgh,Pennsylvania,15212,United States,1-412-237-9402,
978,Pete's Brewing,14800 San Pedro Avenue,San Antonio,Texas,78232,United States,1-210-490-9128,http://www.peteswicked.com/
979,Pete's Place,120 SW Eighth Street,Krebs,Oklahoma,74554,United States,1-918-423-2042,
980,PH Woods Diner and Brewery,23060 Alessandro Boulevard,Moreno Valley,California,92553,United States,1-951-653-3850,
981,Philadelphia Brewing Co,2423 Amber St,Philadelphia,Pennsylvania,19125,United States,215-427-BREW (2739),http://philadelphiabrewing.com/index.htm
982,Phoenix Beverages Ltd,,Pont Fer,Phoenix,,Mauritius,,http://www.phoenixbeveragesgroup.com/
983,Piece,1927 West North Avenue,Chicago,Illinois,60622,United States,1-773-772-4422,
984,Pike Pub and Brewery,1415 First Avenue,Seattle,Washington,98101,United States,1-206-622-6044,
985,Pinehurst Village Brewery,,Aberdeen,North Carolina,,United States,,
986,Pinnacle Peak Patio Steakhouse & Microbrewery,10426 East Jomax Road,Scottsdale,Arizona,85255,United States,1-480-563-5133,
987,Pint's Pub Brewery and Freehouse,211 West 13th Avenue,Denver,Colorado,80204,United States,1-303-534-7543,
988,Pivara Skopje,,Skopje,,,"Macedonia, the Former Yugoslav Republic of",,http://www.pivaraskopje.com.mk/
989,Pivovar Herold Beznice,Nadrazni ul.,Beznice,,,Czech Republic,420-318-682-047,
990,Pivovar Hradec Krlov,,Hradec Krlov,,,Czech Republic,,
991,Pivovar Klter Hradit,CZ-294 15 Klter Hradit nad Jizerou,Klter Hradit nad Jizerou,,,Czech Republic,420-329-774-421,
992,Pivovar Nchod,Dobroovsk 130,Nchod,,,Czech Republic,420-491-407-111,
993,Pivovar Pardubice a.s.,Palackho 250,Pardubice,,,Czech Republic,420-466-511-321-4,
994,Pivovar Podkov,Dkansk 201/10,Praha,,,Czech Republic,420-326-356-222,
995,Pivovar Starobrno,Hlinky 12,Brno,,,Czech Republic,420-543-516-111,
996,Pivovar v Hurbanove,Novozamocka Cesta 2,Hurbanovo,,,Slovakia,421-35---765-41-11,
997,Pivovar Velk Popovice,Ringhofferova 1,Velk Popovice,,,Czech Republic,420-204/623-111,
998,Pivovary Staropramen,Nadrazni 84,Praha,,150 54,Czech Republic,,http://www.staropramen.com
999,Pivzavod Baltika /,"Promzona Parnas-4, 6 Proyezd, 9 Kvartal",Sankt-Peterburg,Sankt-Peterburg,,Russia,7-812-329-91-01,
1000,Pizza Beer,5N404 Harvest Lane,St Charles,Illinois,60175,United States,(630) 377-6888,http://www.mammamiapizzabeer.com/
1001,Pizza Port Brewing - Solana Beach,135 North Highway 101,Solana Beach,California,92075,United States,1-858-481-7332,http://www.pizzaport.com
1002,Pizzeria Uno Chicago Grill & Brewery,61 US Highway 1 South,Metuchen,New Jersey,8840,United States,1-732-548-7979,
1003,Platte Valley Brewing,14 East Railroad,Kearney,Nebraska,68847,United States,1-308-237-0751,
1004,Pleasanton Main Street Brewery,830 Main Street,Pleasanton,California,94566,United States,1-925-462-8218,
1005,Plzesk Prazdroj,U Prazdroje 7,Plze,,,Czech Republic,420-019/706-1111,
1006,Plzesk Prazdroj Pivovar Radegast,CZ-739 51 Noovice,Noovice,,,Czech Republic,420-558-602-175,
1007,Pokka Beer Works,,Nagoya,Chubu,,Japan,,
1008,Pony Express Brewing,,Olathe,Kansas,,United States,,
1009,Port Brewing Company,155 Mata Way Suite 104,San Marcos,California,92069,United States,(760) 891-0272,http://www.portbrewing.com/
1010,Port Washington Brewing,,Port Washington,Wisconsin,53074,United States,1-262-377-2337,
1011,Porterhouse Restaurant and Brewpub,5775 Lower Mountain Road,Lahaska,Pennsylvania,18931,United States,1-215-794-9373,
1012,Portland Brewing,2730 NW 31st Avenue,Portland,Oregon,97210,United States,1-503-226-7623,
1013,Portsmouth Brewery,56 Market Street,Portsmouth,New Hampshire,3801,United States,1-603-431-1115,http://www.portsmouthbrewery.com/
1014,Prairie Rock Brewing - Elgin,127 South Grove Avenue,Elgin,Illinois,60120,United States,1-847-622-8888,
1015,Prescott Brewing Company,130 W Gurley St,Prescott,Arizona,86301,United States,(928) 771-2795,http://prescottbrewingcompany.com/
1016,Pripps Ringnes Bryggerier,,Bromma,,,Sweden,,
1017,Privat-Brauerei Schmucker Ober-Mossau KG,,Mossautal,Hessen,,Germany,,
1306,Umpqua Brewing,,Roseburg,Oregon,,United States,,
1018,Privatbrauerei Bolten,Rheydter-Strae 138,Korschenbroich,Nordrhein-Westfalen,,Germany,49-(0)2161-/-61790-0,
1019,Privatbrauerei Erdinger Weissbru,Franz-Brombach-Strae 1-20,Erding,Bayern,,Germany,49-(0)8122-/-4090,
1020,Privatbrauerei Frankenheim,Wielandstrae 14-16,Dsseldorf,Nordrhein-Westfalen,,Germany,49-(0)211-/-16902-0,
1021,Privatbrauerei Gaffel,Eigelstein 41,Kln,Nordrhein-Westfalen,,Germany,49-(0)221-/-160060,
1022,Privatbrauerei Hofmhl,Hofmhlstrae 10,Eichsttt,Bayern,,Germany,49-(0)8421-/-9808-0,
1023,Private Weissbierbrauerei G. Schneider & Sohn GmbH,Emil-Ott-Strasse 1-5,Kelheim,,93309,Germany,0 94 41 / 7 05 - 0,http://www.schneider-weisse.de
1024,Privater Brauereigasthof Greifenklau,Laurenziplatz 20,Bamberg,Bayern,,Germany,49-(0)951-/-53219,
1025,Pug Ryan's Steakhouse and Brewery,104 Village Place,Dillon,Colorado,80435,United States,1-970-468-2145,
1026,Pugsley Brewing LLC,,Portland,Maine,,United States,,
1027,Pumphouse Brewery & Restaurant,540 Main Street,Longmont,Colorado,80501,United States,1-303-702-0881,
1028,Pumphouse Pizza and Brewing,,Lake Delton,Wisconsin,,United States,,
1029,"Pyramid Alehouse, Brewery and Restaurant - Berkeley",901 Gilman Street,Berkeley,California,94710,United States,1-510-528-9880,
1030,"Pyramid Alehouse, Brewery and Restaurant - Seattle",1201 First Avenue South,Seattle,Washington,98134,United States,1-206-682-3377,
1031,Pyramid Ales Brewery,91 S Royal Brougham Way,Seattle,Washington,98134,United States,(206) 682-8322,http://www.pyramidbrew.com/
1032,Qingdao Brewery,"Hongkong Road, Central",Qingdao,Shandong,,China,,
1033,Quigleys,257 Willbrook Blvd,Pawleys Island,South Carolina,29585,United States,(843) 237-7010,
1034,R&B; Brewing,54 East Fourth Avenue,Vancouver,British Columbia,0,Canada,1-604-874-2537,
1035,Raccoon Lodge and Brewpub / Cascade Brewing,7424 SW Beaverton-Hillsdale Hwy,Portland,Oregon,97225,United States,(503) 296-0110,http://www.raclodge.com/
1036,Raccoon River Brewing,200 North Tenth Street,Des Moines,Iowa,50309,United States,1-515-362-5222,
1037,Radeberger Exportbierbrauerei,Dresdener Strae 2,Radeberg,Sachsen,,Germany,49-(0)3528-/-454-0,
1038,Rahr & Sons Brewing Company,701 Galveston Ave,Fortworth,Texas,76104,United States,(817) 810-9266,http://www.rahrbrewery.com/
1039,Rail House Restaurant and Brewpub,2029 Old Peshtigo Road,Marinette,Wisconsin,54143,United States,1-715-732-4646,
1040,Railway Brewing,,Anchorage,Alaska,,United States,,
1041,Ramapo Valley Brewery,143 Highway 59 Building 6,Hillburn,New York,10931,United States,1-845-369-7827,
1042,Randy's Fun Hunters Brewery Restaurant and Banquet Center,841 East Milwaukee Street,Whitewater,Wisconsin,53190,United States,1-262-473-8000,
1043,RCH Brewery,West Hewish,Weston-super-Mare,Somerset,,United Kingdom,44-(01934)-834447,
1044,Real Ale Brewing Company,231 San Saba Court,Blanco,Texas,78606,United States,1-830-833-2534,http://www.realalebrewing.com/
1045,ReaperAle,,Foothill Ranch,California,,United States,,
1046,Red Kettle Brewing,,Encinitas,California,,United States,,
1047,Red Lodge Ales,417 North Broadway,Red Lodge,Montana,59068,United States,1-406-446-4607,
1048,Red Oak Brewery,6901 Konica Drive,Whitsett,North Carolina,27377,United States,1-888-Red-Oaks,http://www.redoakbrewery.com
1049,Red Star Brewery & Grille,101 Ehalt St.,Greensburg,Pennsylvania,15601,United States,724.850.7245,http://www.redstarbrewery.com/
1050,RedFish New Orleans Brewhouse,2027 13th Street,Boulder,Colorado,80302,United States,1-303-440-5858,
1051,Redhook Ale Brewery,,Seattle,Washington,,United States,,http://www.redhook.com/
1052,Remington Watson Smith Brewing,,Waukesha,Wisconsin,,United States,,
1053,Restaurant Isarbru,Kreuzeckstrae 23,Pullach im Isartal,Bayern,,Germany,49-(0)89-/-798961,
1054,Revolution Brewing LLC,2323 N Milwaukee Ave,Chicago,Illinois,60647,United States,773-227-BREW,http://revbrew.com/
1055,Richbrau Brewing Company,1214 East Cary St,Richmond,Virginia,23219,United States,(804) 644-3018,http://www.richbrau.com/
1056,Ridgeway Brewing,6 Chapel Close,South Stoke,Oxford,,United Kingdom,44-(01491)-873474,
1057,Rio Salado Brewing,,Tempe,Arizona,,United States,,
1058,River Horse Brewing Company,80 LAMBERT LANE,Lambertville,New Jersey,8530,United States,,http://www.riverhorse.com
1059,River West Brewing,,Chicago,Illinois,,United States,,
1060,Rivers Effortless Dining,,Salt Lake City,Utah,84121,United States,1-801-733-6600,
1061,Rivertowne Pour House,312 Center Rd,Monroeville,Pennsylvania,15146,United States,412-372-8199,http://www.myrivertowne.com/
1062,Rock Art Brewery,254 Wilkins Street,Morrisville,Vermont,5661,United States,(802) 888-9400,http://www.rockartbrewery.com/
1063,Rock Bottom Restaurant & Brewery - Chicago,1 West Grand Avenue,Chicago,Illinois,60610,United States,1-312-755-9339,
1064,Rock Bottom Restaurant & Brewery - Denver,1001 16th Street #A-100,Denver,Colorado,80202,United States,1-303-534-7616,
1065,Rock Bottom Restaurant & Brewery - Milwaukee,740 North Plankinton Avenue,Milwaukee,Wisconsin,53203,United States,1-414-276-3030,
1066,Rock Bottom Restaurant & Brewery - Minneapolis,800 LaSalle Plaza,Minneapolis,Minnesota,55402,United States,1-612-332-2739,
1067,Rock Bottom Restaurant & Brewery - San Jose,1875 South Bascom Avenue #700,Campbell,California,95008,United States,1-408-377-0707,
1068,Rock Bottom Restaurant & Brewery - South Denver,9627 East County Line Road,Englewood,Colorado,80112,United States,1-303-792-9090,
1069,Rocky River Brewing,21290 Center Ridge Road,Rocky River,Ohio,44116,United States,1-440-895-2739,
1070,Rockyard Brewing,880 West Castleton Road,Castle Rock,Colorado,80109,United States,1-303-814-9273,
1071,Roffey Brewery,,Holland,Michigan,,United States,,
1072,Rogue Ales,2320 SE OSU Drive,Newport,Oregon,97365,United States,1-541-867-3664,http://www.rogue.com
1073,ronald mengerink,pastoor de katerstraat 24,baarle-hertog,,2387,Belgium,0032 14699800,http://www.dedochtervandekorenaar.be
1074,Roost Brewery,200 East Campbell Avenue,Campbell,California,95008,United States,1-408-866-2699,
1307,Unibroue,80 Des Carrires,Chambly,Quebec,,Canada,1-450-658-7658,http://www.unibroue.com
1075,Roots Organic Brewing,1520 SE Seventh Avenue,Portland,Oregon,97214,United States,1-503-235-7668,
1076,Ross Valley Brewing,,Fairfax,California,,United States,,
1077,Rothaus Brauerei,,Hartford,Wisconsin,,United States,,
1078,Route 66 Brewery,,Saint Louis,Missouri,,United States,,
1079,Routh Street Brewery and Grille,,Dallas,Texas,75201,United States,1-214-922-8835,
1080,Rowland's Calumet Brewery,25 North Madison St,Chilton,Wisconsin,53014,United States,1-920-849-2534,http://rowlandsbrewery.com/
1081,Roy Pitz Brewing Company,140 North Third Street,Chambersburg,Pennsylvania,17201,United States,717-496-8753,http://roypitz.com/
1082,Rubicon Brewing,2004 Capitol Avenue,Sacramento,California,95814,United States,1-916-448-7032,
1083,Ruppaner-Brauerei,Hoheneggstrae 41-51,Konstanz,Baden-Wrttemberg,,Germany,49-(0)7531-/-9373-0,
1084,Rush River Brewing,990 Antler Court,River Falls,Wisconsin,54022,United States,1-715-426-2054,
1085,Russell Brewing,202 - 13018 80th Avenue,Surrey,British Columbia,0,Canada,1-604-599-1190,
1086,Russian River Brewing,725 Fourth Street,Santa Rosa,California,95404,United States,1-707-545-2337,http://www.russianriverbrewing.com/
1087,S.A. Damm,,Barcelona,,,Spain,,http://www.estrelladamm.es/
1088,SA Brain & Co. Ltd.,Crawshay Street,Cardiff,Wales,,United Kingdom,44-(02920)-402060,
1089,"Sabmiller India,",SKOL Breweries Limited,Bangalore,Karnataka,560022,India,91 (0) 80 - 22198800,http://www.sabmiller.in/
1090,Sacramento Brewing Company,2713 El Paseo Lane,Sacramento,California,95821,United States,(916) 485-4677,http://sacbrew.blogspot.com/
1091,Saint Arnold Brewing,2522 Fairway Park Drive,Houston,Texas,77092,United States,1-713-686-9494,http://www.saintarnold.com
1092,Saint Louis Brewery / Schlafy Tap Room,2100 Locust Street,Saint Louis,Missouri,63103,United States,1-314-241-2337,http://www.schlafly.com/
1093,Saint Somewhere Brewing Company,1441 Savannah Ave Unit E,Tarpon Springs,Florida,34689,United States,813-503-6181,http://www.saintsomewherebrewing.com/
1094,Saku lletehas,Tallinna mnt.2,Saku,,,Estonia,372-6-508-400,
1095,Salado Creek Brewing Company,,San Antonio,Texas,,United States,,
1096,Salopian Brewery,67 Mytton Oak Road,Shrewsbury,Shropshire,,United Kingdom,44-(01743)-248414,
1097,Salt Lake Brewing - Squatters,147 West Broadway,Salt Lake City,Utah,84101,United States,1-801-328-2329,
1098,"Sam Choy's Breakfast, Lunch, Crab & Big Aloha Brewery",580 North Nimitz Highway,Honolulu,Hawaii,96817,United States,1-808-545-7979,
1099,Samuel Smith Old Brewery (Tadcaster),High Street,Tadcaster,North Yorkshire,,United Kingdom,44-(01937)-839201,
1100,San Diego Brewing,10450-L Friars Road,San Diego,California,92120,United States,1-619-284-2739,
1101,San Marcos Brewery & Grill,1080 West San Marcos Boulevard,San Marcos,California,92069,United States,1-760-471-0050,
1102,San Miguel Corporation,PO Box 271,Manila,,,Philippines,,
1103,Sand Creek Brewing Company,320 Pierce St,Black River Falls,Wisconsin,54615,United States,(715) 284-7553,http://www.sandcreekbrewing.com/
1104,SandLot Brewery at Coors Field,2145 Blake Street,Denver,Colorado,80205,United States,1-303-298-1587,
1105,Sanford's Grub and Pub,5 East Alger Street,Sheridan,Wyoming,82801,United States,1-307-674-1722,
1106,Santa Barbara Brewing,501 State Street,Santa Barbara,California,93101,United States,1-805-730-1040,
1107,Santa Cruz Brewing,,Santa Cruz,California,,United States,,
1108,Santa Fe Brewing Company,35 Fire Place,Santa Fe,New Mexico,87508,United States,505.424.3333,http://www.santafebrewing.com/
1109,Santa Rosa Brewing,,Santa Rosa,California,,United States,,
1110,Sapporo Breweries - Chuo,"10-1 Ginza 7-chome, Chuo-ku",Tokyo,Kanto,,Japan,81-(03)-3572-6111,
1111,Sarah Hughes Brewery,Dudley DY3 1JE,Dudley,West Midlands,,United Kingdom,,
1112,Saxer Brewing,,Lake Oswego,Oregon,,United States,,
1113,Scharer's Little Brewery,180 Old Hume Hwy,Picton,NSW,2571,Australia,+61 2 4677 1415,
1114,Schlobrauerei Reckendorf,Mhlweg 18,Reckendorf,Bayern,,Germany,49-(0)9544-/-9421-0,
1115,Schloss Eggenberg,Eggenberg 1,Vorchdorf,,,Austria,43-0-76-14/63-45-0,
1116,Schlossbru,Oberdorferstrae 9,Dornbirn,,,Austria,43-05572-/-386-683,
1117,SchÃƒÂ¶fferhofer,DarmstÃƒÂ¤dter Landstrasse 185,Frankfurt/Main,Hessen,60598,Germany,,http://www.schoefferhofer.de/
1118,Schooner Brewery,,Dallas,Texas,,United States,,
1119,Schooner's Grille & Brewery,4250 Lone Tree Way,Antioch,California,94531,United States,1-925-776-1800,
1120,Schussenrieder Erlebnisbrauerei,Wilhelm-Schussen-Strae 12,Bad Schussenried,Baden-Wrttemberg,,Germany,49-(0)7583-/-404-11,
1121,Scotch Irish Brewing,40 Bennett Street,Carleton Place,Ontario,0,Canada,1-613-257-7845,
1122,Scottish & Newcastle Breweries,Gallowgate,Newcastle-upon-Tyne,Northumberland,,United Kingdom,44-(0191)-2325092,
1123,Scottish & Newcastle PLC,33 Ellersly Road,Edinburgh,Scotland,,United Kingdom,44-(0131)-528-2000,
1124,Scuttlebutt Brewing,1524 West Marine View Drive,Everett,Washington,98201,United States,1-425-257-9316,
1125,Sea Dog Brewing Company,26 Front Street,Bangor,Maine,4401,United States,207.947.8009,http://www.seadogbrewing.com/
1126,Seabright Brewery,519 Seabright Avenue #107,Santa Cruz,California,95062,United States,1-408-426-2739,
1127,Second Street Brewery,1814 Second Street,Santa Fe,New Mexico,87505,United States,1-505-982-3030,http://www.secondstreetbrewery.com/
1128,Selin's Grove Brewing Co.,121 North Market St.,Selinsgrove,Pennsylvania,17870,United States,570-374-7308,http://www.selinsgrovebrewing.com/
1129,Sequoia Brewing Conoabt,777 East Olive Avenue,Fresno,California,93728,United States,1-559-264-5521,http://www.sequoiabrewing.com/
1130,Shaftebury Brewing,,Delta,British Columbia,,Canada,,
1131,Sharktooth Brewing,,Kahului,Hawaii,,United States,,
1132,Shepherd Neame,17 Court Street,Faversham,Kent,,United Kingdom,44-(01795)-532206,
1133,Sherlock's Home,,Minnetonka,Minnesota,,United States,,
1134,Ship Inn Brewpub,61 Bridge Street,Milford,New Jersey,8848,United States,1-800-651-2537,
1135,Shipwrecked Brew Pub,7791 Egg Harbor Road,Egg Harbor,Wisconsin,54209,United States,1-888-868-2767,
1136,Shipyard Brewing - Portland,86 Newbury Street,Portland,Maine,4101,United States,1-800-789-0684,http://www.shipyard.com/
1137,Shmaltz Brewing Company,,San Francisco,California,,United States,,http://www.shmaltz.com/
1138,Shmaltz Enterprises,3435 Cesar Chavez #227,San Francisco,California,94110,United States,1-650-343-2739,
1139,Short's Brewing Company,121 N. Bridge Street,Bellaire,Michigan,49615,United States,231-533-6622,http://www.shortsbrewing.com
1140,Sierra Leone Brewery,PO Box 721,Freetown,Sierra Leone,,Sierra Leone,+232 (22) 26 31 18,http://www.slbrewery.com/
1141,Sierra Madre Brewing Co.,Av. Insurgentes 3915,Monterrey,Nuevo Leon,64630,Mexico,+52 (81) 8348-4896,http://www.smbc.com.mx/
1142,Sierra Nevada Brewing Co.,1075 East 20th Street,Chico,California,95928,United States,1-530-893-3520,http://www.sierranevada.com/
1143,Siletz Roadhouse & Brewery,243 North Gaither Street,Siletz,Oregon,97380,United States,1-541-444-2335,
1144,Silver Gulch Brewing Company,2195 Old Steese Highway,Fox,Alaska,99708,United States,(907) 452-2739,http://www.ptialaska.net/~gbrady/
1145,Silverado Brewing,3020 St. Helena Highway North,Saint Helena,California,94574,United States,1-707-967-9876,
1146,Simmerberg Brusttt und Taferne,Ellhofer Strae 2,Simmerberg,Bayern,,Germany,49-(0)8387-/-3806,
1147,Sioux Falls Brewing,,Sioux Falls,South Dakota,,United States,,
1148,Six Rivers Brewery,1300 Central Avenue,McKinleyville,California,95519,United States,1-707-839-7580,http://www.sixriversbrewery.com/
1149,Sixpoint Craft Ales,40 Van Dyke St,Brooklyn,New York,11231,United States,,http://www.sixpointcraftales.com/
1150,Ska Brewing Company,545 Turner Drive,Durango,Colorado,81301,United States,970.247.5792,http://www.skabrewing.com/
1151,Skagit River Brewing,404 South Third Street,Mount Vernon,Washington,98273,United States,1-360-336-2884,
1152,Skol Breweries,Uran,Maharashtra,,,India,,
1153,Slab City Brewing,,Bonduel,Wisconsin,,United States,,
1154,Sleeman Brewing & Malting,551 Clair Road West,Guelph,Ontario,0,Canada,1-519-822-1834,
1155,Sleeping Lady Brewing Company,717 W. 3rd Ave,Anchorage,Alaska,99501,United States,(907) 277-7727,http://www.alaskabeers.com/
1156,Slottskllans Bryggeri,Mrstagatan 10-12,Uppsala,,,Sweden,46-018-15-58-00,
1157,Sly Fox Brewhouse and Eatery - Phoenixville,519 Kimberton Road,Phoenixville,Pennsylvania,19460,United States,1-610-935-4540,http://www.slyfoxbeer.com/index1.asp
1158,Sly Fox Brewhouse and Eatery - Royersford,312 North Lewis Road,Royersford,Pennsylvania,19468,United States,1-610-948-8088,http://www.slyfoxbeer.com/index1.asp
1159,Smoky Mountain Brewing,424 South Gay Street,Knoxville,Tennessee,37902,United States,1-423-673-8400,
1160,Smuttynose Brewing Co.,225 Heritage Ave,Portsmouth,New Hampshire,3801,United States,603-436-4026,http://www.smuttynose.com/
1161,Snake River Brewing,265 S. Millward,Jackson,Wyoming,83001,United States,307.739.BEER,http://www.snakeriverbrewing.com
1162,Snipes Mountain Microbrewery & Restaurant,905 Yakima Valley Highway,Sunnyside,Washington,98944,United States,1-509-837-2739,
1163,Snowshoe Brewing - Sonora,,Sonora,California,,United States,,
1164,Sockeye,3019 N Cole Rd,Boise,Idaho,83704,United States,(208) 658-1533,
1165,Socorro Springs Brewing,1012 North California Street,Socorro,New Mexico,87801,United States,1-505-838-0650,
1166,Sonoran Brewing Company,10426 East Jomax Road,Scottsdale,Arizona,85255,United States,602-484-7775,http://www.sonoranbrewing.com/
1167,South Australian Brewing,107 Port Road,Adelaide,South Australia,,Australia,61-(09)-8354-8666,
1168,South County Brewing Co.,104 Mill St.,Fawn Grove,Pennsylvania,17321,United States,,http://www.southcountybrewing.com/
1169,South Shore Brewery,808 West Main Street,Ashland,Wisconsin,54806,United States,1-715-682-9199,
1170,Southampton Publick House,40 Bowden Square,Southampton,New York,11968,United States,1-631-283-2800,http://southamptonbrewery.com
1171,Southend Brewery and Smokehouse - Charleston,161 East Bay Street,Charleston,South Carolina,29401,United States,1-843-853-4677,
1172,Southern Star Brewing Company,1207 N. FM 3083 E.,Conroe,Texas,77303,United States,(936).441-2739,http://www.southernstarbrewery.com/
1173,Southern Tier Brewing Co,2051A Stoneman Circle,Lakewood,New York,14750,United States,716-763-5479,http://www.southerntierbrewing.com/
1174,357,,,,,,,
1175,Spanish Peaks Brewing,Polson MT 59860,Polson,Montana,,United States,,http://www.blackdogales.com/
1176,Spaten-Franziskaner-BrÃƒÂ¤u,Marsstrae 46-48,MÃƒÂ¼nchen,Bayern,,Germany,49-(0)89-/-5122-0,
1177,Speakeasy Ales and Lagers,1195-A Evans Avenue,San Francisco,California,94124,United States,1-415-642-3371,
1178,Spilker Ales,300 West Fourth Street,Cortland,Nebraska,68331,United States,1-402-798-7445,
1179,Spoetzl Brewery,603 East Brewery Street,Shiner,Texas,77984,United States,1-800-574-4637,http://www.shiner.com
1180,Sports City Cafe & Brewery,,La Jolla,California,,United States,,
1181,Sprecher Brewing,701 West Glendale Avenue,Glendale,Wisconsin,53209,United States,1-414-964-2739,http://www.sprecherbrewery.com/
1182,Spring House Brewing Company,2519 Main St.,Conestoga,Pennsylvania,17516,United States,,http://www.springhousebeer.com/
1183,Springfield Brewing,305 South Market Street,Springfield,Missouri,65806,United States,1-417-832-8277,
1184,St John Brewers,,St. John,Virgin Islands,,United States,,http://www.stjohnbrewers.com/index.html
1185,St Peter's Brewery,St Peter's Hall,Bungay,Suffolk,,United Kingdom,44-(01986)-782322,
1186,St. Austell Brewery,63 Trevarthian Road,St. Austell,Cornwall,PL25 4BY,United Kingdom,0845 2411122,http://www.staustellbrewery.co.uk/
1187,St. Francis Abbey Brewery,,Kilkenny,,,Ireland,,http://www.diageo.ie/Company/Brewing/KilKenny/CompanyBrewingKilkenny
1188,St. GeorgenBru Modschiedler KG,Marktstrae 12,Buttenheim,Bayern,,Germany,49-(0)9545-/-446-0,
1189,St. James's Gate Brewery,,Dublin,,,Ireland,,http://www.guinness.com
1190,St. Stan's Brewing Co.,821 L Street,Modesto,California,95354,United States,1-209-606-2739,http://www.ststans.com/
1191,Staatliches HofbrÃƒÂ¤uhaus in MÃƒÂ¼nchen,HofbrÃƒÂ¤uallee 1,MÃƒÂ¼nchen,Bayern,,Germany,49-(0)89-/-92105-0,
1192,Stadsbrouwerij De Hemel,Franseplaats 1,Nijmegen,,0,Netherlands,31-024-3606167,
1193,Standing Stone Brewing Company,101 Oak Street,Ashland,Oregon,97520,United States,(541) 482-2448,http://www.standingstonebrewing.com/
1194,Steam Whistle Brewery,255 Bremner Road,Toronto,ON,M5V 3M9,Canada,,http://www.steamwhistle.ca
1195,Steamworks,375 Water Street,Vancouver,British Columbia,V6B 5C6,Canada,1-604-689-2739,http://www.steamworks.com/gastown_index.htm
1196,Steamworks Brewing - Durango,801 East Second Avenue,Durango,Colorado,81301,United States,1-970-259-9200,
1197,Steel Brewing,,Longview,Texas,,United States,,
1198,Steinfels Back & Brau,,Zrich,,,Switzerland,,
1199,Steve and Clark's Brew Pub and Sausage Co. #2,,Durham,North Carolina,,United States,,
1200,Stevens Point Brewery,2617 Water Street,Stevens Point,Wisconsin,54481,United States,1-715-344-9310,
1201,Stewart's Brewing,219 Governor's Square,Bear,Delaware,19701,United States,1-302-836-2739,
1202,Stieglbrauerei zu Salzburg GmbH,KendlerstraÃƒÅ¸e 1,Salzburg,,,Austria,43-0-662-/-83-87-0,http://www.stieglbrauerei.at/
1203,Stillwater Artisanal Ales,,Baltimore,Maryland,,United States,,http://www.stillwaterales.com/
1204,Stone Brewing Co.,1999 Citracado Parkway,Escondido,California,92029,United States,1-760-471-4999,http://www.stonebrew.com/
1205,Stone Cellar Brewpub & Restaurant,1004 South Olde Oneida,Appleton,Wisconsin,54915,United States,1-920-735-0507,
1206,Stone City Brewing,,Solon,Iowa,,United States,,
1207,Stone Coast Brewing - Portland,23 Rice Street,Portland,Maine,4103,United States,1-207-774-7437,
1208,Stonecutters Brewhouse,14 N Main St.,Barre,Vermont,5641,United States,(802) 476-6000,http://www.stonecuttersbrewhouse.com/
1209,Stoney Creek Brewing Company,237 Joseph Campau,Detroit,Michigan,48207,United States,1-877-786-6399,
1210,Storm Brewing,310 Commercial Drive,Vancouver,British Columbia,V5L 3V6,Canada,(604) 255-9119,http://www.stormbrewing.org
1211,Stoudt's Brewery,2800 North Reading Road,Adamstown,Pennsylvania,19501,United States,717-484-4386,http://www.stoudtsbeer.com/brewery.html
1212,Stout Brothers Public House,,Milwaukee,Wisconsin,,United States,,
1213,Strangford Lough Brewing Company Ltd,Braidleigh Lodge 22 Shore Road,Killyleagh,County Down,BT30 9UE,Ireland,+44 (0)28 4482 1461,http://slbc.ie/
1214,Straub Brewery,303 Sorg Street,St. Mary's,Pennsylvania,15857,United States,814-834-2875,http://www.straubbeer.com/index.htm
1215,Stroh Brewery Company,,Tampa,Florida,,United States,,
1216,Sturgeon Bay Brewing,,Sturgeon Bay,Wisconsin,54235,United States,1-920-746-7611,
1217,Stuttgarter Hofbru,Bblinger Strae 104,Stuttgart,Baden-Wrttemberg,,Germany,49-(0)711-/-6488-0,
1218,Sudwerk Privatbrauerei Hbsch,2001 Second Street,Davis,California,95616,United States,1-530-756-2739,
1219,Sullivan's Black Forest Brew Haus & Grill,281 Heinlein Strasse,Frankenmuth,Michigan,48734,United States,1-800-890-6877,
1220,Summit Brewing,910 Montreal Circle,Saint Paul,Minnesota,55102,United States,1-651-265-7800,http://www.summitbrewing.com/
1221,Surly Brewing,4811 Dusharme Drive,Brooklyn Center,Minnesota,55429,United States,1-763-535-3330,http://www.surlybrewing.com/
1222,Swan Brewery,25 Baile Road,Canning Vale,Western Australia,,Australia,61-(08)-9350-0222,
1223,Sweet Water Tavern and Brewery,45980 Waterview Plaza,Sterling,Virginia,20121,United States,(703) 449-1108,http://www.greatamericanrestaurants.com/sweetMainSter/index.htm
1224,Sweetwater Brewing - Atlanta,195 Ottley Drive,Atlanta,Georgia,30324,United States,1-404-691-2537,http://www.sweetwaterbrew.com/
1225,Sweetwater Brewing - Casper,,Casper,Wyoming,,United States,,
1226,Sweetwater Tavern - Centreville,14250 Sweetwater Lane,Centreville,Virginia,20121,United States,1-703-449-1100,
1227,Switchback Brewing Co,PO Box 4210,Burlington,Vermont,5406,United States,(802) 651-4114,
1228,T&R; Theakston,The Brewery,Ripon,North Yorkshire,,United Kingdom,44-(01765)-689544,
1229,"T-Bonz Gill, Grill and Brewery",1028 Johnny Dodds Boulevard,Mount Pleasant,South Carolina,29464,United States,1-843-971-7777,
1230,Tabernash Brewing,,Longmont,Colorado,,United States,,
1231,Tablerock,705 Fulton St,Boise,Idaho,83702,United States,(208) 342-0944,http://www.tablerockbrewpub.com/
1232,Tailgate Beer,6648 Reservoir Ln,San Diego,California,92155,United States,619.466.2337,http://www.tailgatebeer.com/indexmain.php
1233,Taiwan Tobacco and Wine Monopoly Board,Taipei,Taipei,,,"Taiwan, Province of China",,
1234,Tampa Bay Brewing,1812 North 15th Street,Tampa,Florida,33605,United States,1-813-247-1422,
1235,Tap Room Brewing Company,,La Crosse,Wisconsin,,United States,,http://www.taproom21.com/
1236,Taylor Brewing,717 East Butterfield Road,Lombard,Illinois,60148,United States,1-630-990-8700,
1237,Taylor's Crossing Brewing,1025 Marine Drive,North Vancouver,British Columbia,0,Canada,1-604-984-2739,
1238,Taylor's Restaurant and Brewery,,San Diego,California,,United States,,
1239,Tempo,,,,,Israel,,http://www.tempo.co.il/
1240,Tenaya Creek Restaurant and Brewery,3101 North Tenaya Way,Las Vegas,Nevada,89128,United States,1-702-362-7335,
1241,Tennent Caledonian Brewery,161 Duke Street,Glasgow,Scotland,,United Kingdom,44-(0141)-552-6552,
1242,Terminal Gravity Brewing,803 SE School Street,Enterprise,Oregon,97828,United States,1-541-426-0158,
1243,Terrapin Beer Company,196 Alps Road,Athens,Georgia,30606,United States,1-888-557-2337,http://www.terrapinbeer.com/
1244,The Alchemist,23 South Main Street,Waterbury,Vermont,5676,United States,(802) 244-4120,http://www.alchemistbeer.com/
1245,The Blind Bat Brewery LLC,420 Harrison Drive,Centerport,New York,11721,United States,(631) 891-7909,http://www.blindbatbrewery.com/
1246,The Bruery,715 Dunn Way,Placentia,California,92870,United States,714-996-6258,http://www.thebruery.com/
1247,The Cambridge House,357 Salmon Brook Street,Granby,Connecticut,6035,United States,(860) 653-BREW,http://www.cambridgebrewhouse.com/
1248,The Church Brew Works,3525 Liberty Avenue,Pittsburgh,Pennsylvania,15201,United States,412-688-8200,http://churchbrew.com/
1249,The Hop Yard,Bollinger Canyon Rd.,San Ramon,California,,United States,,http://www.hopyard.com/
1250,The Livery,190 5th Street,Benton Harbor,Michigan,49022,United States,(269) 925-8760,http://liverybrew.com/
1251,The Lost Abbey,155 Mata Way Suite 104,San Marcos,California,92069,United States,(800) 918-6816,http://www.lostabbey.com/
1252,The Narragansett Brewing Company,60 Ship Street,Providence,Rhode Island,2903,United States,401.437.8970,http://www.narragansettbeer.com
1253,The Round Barn Winery & Brewery,10983 Hills Road,Baroda,Michigan,49101,United States,(800)-716-9463,http://www.roundbarnwinery.com/brewery.php
1254,Third Street Ale Works,610 Third Street,Santa Rosa,California,95404,United States,1-707-523-3060,http://www.thirdstreetaleworks.com
1255,Thirsty Dog Brewing,529 Grant St. Suite B,Akron,Ohio,44311,United States,330-252-2739,http://www.thirstydog.com
1256,ThirstyBear Brewing,661 Howard Street,San Francisco,California,94105,United States,1-415-974-0905,
1257,Thomas Creek Brewery,2054 Piedmont Highway,Greenville,South Carolina,29605,United States,1-864-605-1166,
1258,Thomas Hooker Brewing,16 Tobey Road,Bloomfield,Connecticut,6002,United States,860-242-3111,http://www.hookerbeer.com/
1259,Thomas Kemper Brewing,91 South Royal Brougham,Seattle,Washington,98134,United States,1-260-682-8322,
1260,Three Floyds Brewing,9750 Indiana Parkway,Munster,Indiana,46321,United States,1-219-922-3565,http://www.threefloydspub.com/
1261,Three Needs Brewery and Taproom,207 College Street,Burlington,Vermont,5401,United States,1-802-658-0889,
1262,Thunder Canyon Brewery,7401 North La Cholla Boulevard,Tucson,Arizona,85741,United States,1-520-797-2652,http://www.thundercanyonbrewery.com/
1263,Thunderhead Brewery,18 East 21st Street,Kearney,Nebraska,68847,United States,1-308-237-1558,
1264,Thunderhead Brewery #2,120 East Third Street,Grand Island,Nebraska,68801,United States,1-308-398-2500,
1265,Tied House Cafe & Brewery - San Jose,65 North San Pedro,San Jose,California,95110,United States,1-408-295-2739,
1266,Timmermans,Kerkstraat 11,Itterbeek,,1701,Belgium,3225690357,http://www.anthonymartin.be/
1267,Tin Whistle Brewing,954 West Eckhardt Avenue,Penticton,British Columbia,0,Canada,1-250-770-1122,
1268,Titletown Brewing,200 Dousman Street,Green Bay,Wisconsin,54303,United States,1-920-437-2337,
1269,Tivoli Brewing,,Denver,Colorado,,United States,,
1270,Tollemache and Cobbold Brewery,,Ipswich,Suffolk,,United Kingdom,,
1271,Tommyknocker Brewery and Pub,1401 Miner Street,Idaho Springs,Colorado,80452,United States,1-303-567-2688,http://www.tommyknocker.com/
1272,Tomos Watkin and Sons Ltd.,"Unit 3, Century Park, Valley Way",Swansea,Wales,,United Kingdom,44-(01792)-775333,
1273,Tongerlo,,Westerlo,Antwerp,,Belgium,,http://www.tongerlo.be
1274,Tooheys,29 Nyrang Street,Sydney,New South Wales,,Australia,,
1275,Tooth's,,Sydney,New South Wales,,Australia,,
1276,Top of the Hill Restaurant and Brewery,101 East Franklin Street,Chapel Hill,North Carolina,27514,United States,1-919-929-8676,
1277,Trade Winds Brewing,,Wailuku,Hawaii,,United States,,
1278,Traffic Jam and Snug,4268 Second Street,Detroit,Michigan,48201,United States,313-831-9470,
1279,Trailhead Brewing Company,921 South Riverside Drive,Saint Charles,Missouri,63301,United States,1-636-946-2739,
1280,Trap Rock Restaurant and Brewery,279 Springfield Avenue,Berkeley Heights,New Jersey,7922,United States,1-908-665-1755,
1281,Traquair House Brewery,Innerleithen EH44 6PW,Innerleithen,Scotland,,United Kingdom,44-(01896)-830323,
1282,Trinity Brewing Company,1446 Garden of the Gods,Colorado Springs,Colorado,80907,United States,719-634-0029,http://trinitybrew.com/
1283,Triple Rock Brewery,1920 Shattuck Avenue,Berkeley,California,94704,United States,1-510-843-2739,
1284,Triumph Brewing of New Hope,400 Union Square,New Hope,Pennsylvania,18938,United States,1-215-862-8300,http://www.triumphbrewing.com/
1285,Triumph Brewing of Princeton,138 Nassau Street,Princeton,New Jersey,8542,United States,1-609-924-7855,
1286,Troegs Brewing,800 Paxton Street,Harrisburg,Pennsylvania,17104,United States,1-717-232-1297,http://www.troegs.com/
1287,"Tropical Beverage (International) Co., Ltd","35 Soi Prommit, Sukumvit 39",Bangkok,,,Thailand,,http://www.tropbevco.com/
1288,Trout River Brewing,58 Broad Street,Lyndonville,Vermont,5851,United States,802) 656-9396,http://www.troutriverbrewing.com/
1289,Tsingtao,,Qingdao,Shandong,,China,,
1290,Tucher Bru,Schillerstrae 14,Nrnberg,Bayern,,Germany,49-(0)911-/-9776-0,
1291,Tui Brewery,State Highway 2,Mangatainoka,,,New Zealand,64-(06)-3767549,
1292,Tunner's Guild Brewing Systems,,Saint Paul,Minnesota,,United States,,
1293,Tuppers Hop Pocket Ale,6404 Redwing Road,Bethesda,Maryland,20817,United States,1-301-229-2027,
1294,Tustin Brewing,13011 Newport Avenue #100,Tustin,California,92780,United States,1-714-665-2337,
1295,Twin Ports Brewing,,Superior,Wisconsin,,United States,,
1296,Twin Rivers Brewing,104 North Lewis Street,Monroe,Washington,98272,United States,1-360-794-4056,
1297,Twisted Pine Brewing Company,3201 Walnut Street Ste A,Boulder,Colorado,80301,United States,303.786.9270,http://www.twistedpinebrewing.com/
1298,Two Brothers Brewing,30 Butterfield Road,Warrenville,Illinois,60555,United States,1-800-451-6348,http://www.twobrosbrew.com/
1299,Two Dogs Beverage Company,272 Plandome Road,Manhasset,New York,11030,United States,1-516-869-6568,
1300,TwoRows Restaurant & Brewery - Dallas,5500 Greenville Avenue #1300,Dallas,Texas,75206,United States,1-214-696-2739,
1301,Tyranena Brewing,1025 Owen Street,Lake Mills,Wisconsin,53551,United States,1-920-648-8699,http://www.tyranena.com
1302,Tyskie Browary KsiÃ„â€¦Ã…Â¼Ã„â„¢ce,Mikolowska 5,Tychy,,,Poland,48-32-327-81-00,http://www.tyskie.pl/
1303,Uerige Obergrige Hausbrauerei,Bergerstrae 1,Dsseldorf,Nordrhein-Westfalen,,Germany,49-(0)211-/-86699-0,
1304,Uinta Brewing Compnay,1722 South Fremont Drive (2375 West),Salt Lake City,Utah,84104,United States,1-801-467-0909,http://www.uintabrewing.com/
1305,Ukiah Brewing,102 South State Street,Ukiah,California,95482,United States,1-707-468-5898,
1308,Unicer,,,,,Portugal,,http://www.unicer.pt
1309,Union Barrel Works,6 N. Reamstown Road,Reamstown,Pennsylvania,17567,United States,717-335-7837,http://www.unionbarrelworks.com/
1310,Union Colony Brewery,,Greeley,Colorado,,United States,,
1311,Unionsbru Haidhausen,Einsteinstrae 42,Mnchen,Bayern,,Germany,49-(0)89-/-477677,
1312,United Breweries Limited,1/1 Vittal Mallya Road,Bangalore,,,India,91-80-22441,
1313,Upland Brewing,350 West Eleventh Street,Bloomington,Indiana,47404,United States,1-812-336-2337,http://www.uplandbeer.com
1314,Upper Mississippi Brewing,,Clinton,Iowa,,United States,,
1315,Upstream Brewing Company at Legacy,17070 Wright Plaza,Omaha,Nebraska,68130,United States,1-402-778-0100,
1316,Upstream Brewing Old Market,514 South Eleventh Street,Omaha,Nebraska,68102,United States,1-402-344-0200,http://www.upstreambrewing.com/
1317,Ushers of Trowbridge,,Trowbridge,Wiltshire,,United Kingdom,,
1318,Utah Brewers Cooperative,1763 South 300 West,Salt Lake City,Utah,84115,United States,1-801-466-8855,http://www.utahbeers.com/
1319,Utenos Alus,Pramons gatv 12,Utena,,,Lithuania,370-39-69-023,
1320,Valley Brewing Company,1950 W. Fremont St.,Stockton,California,95204,United States,(209) 464-2739,http://www.valleybrew.com/
1321,Valley Forge Brewing,,Wayne,Pennsylvania,,United States,,
1322,Van Honsebrouch,,Ingelmunster,,,Belgium,,
1323,Vancouver Island Brewing,2330 Government Street,Victoria,British Columbia,0,Canada,1-250-361-0007,
1324,Vermont Pub & Brewery,144 College St.,Burlington,Vermont,5401,United States,(802) 865-0500,http://www.vermontbrewery.com/
1325,VetterÃ¯Â¿Â½s Alt Heidelberger Brauhaus,Steingasse 9,Heidelberg,Baden-WÃƒÂ¼rttemberg,69117,Germany,,http://www.brauhaus-vetter.de
1326,Victory Brewing,420 Acorn Lane,Downingtown,Pennsylvania,19335,United States,1-610-873-0881,http://www.victorybeer.com
1327,Viking Brewing,234 Dallas Street West,Dallas,Wisconsin,54733,United States,1-715-837-1824,
1328,Vintage 50 Restaurant and Brew Lounge,50 Catoctin Ct. NE #100,Leesburg,Virginia,20176,United States,(703) 777-2169,http://www.vintage50.com/
1329,Vivungs Bryggeri,,Romakloster,,,Sweden,,
1330,"Voodoo Brewing Co.,LLC",215 1/5 Arch St.,Meadville,Pennsylvania,16335,United States,1-(412)-468-0295,http://www.voodoobrewery.com/
1331,vyturio Alaus Darykla,Kuli vart 7,Klaipda,,0,Lithuania,370-46-484-000,
1332,Wachusetts Brewing Company,175 State Road East,Westminster,Massachusetts,1473,United States,978-874-9965,http://www.wachusettbrew.com
1333,Wagner Valley Brewing,9322 State Route 414,Lodi,New York,14860,United States,1-607-582-6450,
1334,Wainwright Brewing,3410 Sassafras Street,Pittsburgh,Pennsylvania,,United States,1-412-692-1144,
1335,Walking Man Brewery,240 SW First Street,Stevenson,Washington,98648,United States,509.427.5520,http://www.walkingmanbrewing.com/
1336,Walldorff Brew Pub,105 East State Street,Hastings,Michigan,49508,United States,269 945-4400,http://walldorffbrewpub.com/
1337,Warsteiner Brauerei,Domring 4-10,Warstein,Nordrhein-Westfalen,,Germany,49-(0)2902-/-880,
1338,Watch City Brewing,256 Moody Street,Waltham,Massachusetts,2453,United States,1-781-647-4000,
1339,Water Street Brewery,1101 North Water Street,Milwaukee,Wisconsin,53202,United States,1-414-272-1195,
1340,Water Street Lake Country,3191 Golf Road,Delafield,Wisconsin,53018,United States,1-262-646-7878,
1341,Water Tower Brewing,,Eden Prairie,Minnesota,55344,United States,1-952-941-8773,
1342,Watney Brewery,,London,London,,United Kingdom,,
1343,Watson Brothers Brewhouse,,Blue Ash,Ohio,,United States,,
1344,Wdi-Bru-Huus,Florhofstrasse 13,Wdenswil,,,Switzerland,41-01-783-93-92,
1345,Weeping Radish Restaurant and Brewery - Manteo,525 N Virginia Dare Road,Manteo,North Carolina,27954,United States,1-800-896-5403,
1346,Weinkeller Brewery - Berwyn,,Berwyn,Illinois,,United States,,
1347,Weissbierbrauerei Hopf,Schtzenstrae 8-10,Miesbach,Bayern,,Germany,49-(0)8025-/-2959-0,
1348,Wells and (&) Youngs Brewing Company Ltd.,,,,,United Kingdom,,http://www.bombardier.co.uk/bombardier
1349,WernesgrÃƒÂ¼ner Brauerei,Bergstrae 4,Steinberg/Sachsen,Sachsen,,Germany,49-(0)37462-/-61-0,http://www.wernesgruener.de/
1350,WernesgrÃƒÂ¼ner Brauerei GmbH,,"Steinberg-WernesgrÃƒÂ¼n, Germany",,,Germany,,http://www.wernesgruener.de/
1351,Western Reserve Brewing,,Cleveland,Ohio,,United States,,
1352,Weyerbacher Brewing Company,905 Line Street,Easton,Pennsylvania,18042,United States,1.610.559.5561,http://www.weyerbacher.com/
1353,WH Brakspear & Sons,,Henley-on-Thames,Oxford,,United Kingdom,,
1354,Wharf Rat,206 W. Pratt St.,Baltimore,Maryland,21201,United States,410-244-8900,http://www.thewharfrat.com
1355,Whim Ales,Hartington,Buxton,Derby,,United Kingdom,44-(01298)-84991,
1356,Whitbread Beer Company,Porter Tun House,Luton,Bedford,,United Kingdom,44-(01582)-391166,
1357,White Marsh Brewing Company,8149 Honeygo Blvd,White Marsh,Maryland,21236,United States,410.931.PUBS,http://www.redbrickstation.com/
1358,White Oak Cider,18452 NE Ribbon Ridge Road,Newberg,Oregon,97132,United States,1-503-538-0349,
1359,White Winter Winery,7665 US Highway 2,Iron River,Wisconsin,54847,United States,1-800-697-2006,
1360,Whitstable Brewery,"Little Telpits Farm, Woodcock Lane",Maidstone,Kent,,United Kingdom,44-(01622)-851007,
1361,Widmer Brothers Brewing,929 North Russell Street,Portland,Oregon,97227,United States,1-503-281-2437,
1362,Wild Duck Brewing,,Eugene,Oregon,,United States,,
1363,"Wild Goose Brewery, LLC",4607 Wedgewood Blvd.,Fredrick,Maryland,21703,United States,(301) 694-7899,http://www.wildgoosebrewery.com/
1364,Wild Onion Brewing,,Lake Barrington,Illinois,,United States,,
1365,Wild River Brewing and Pizza - Cave Junction,249 North Redwood Highway,Cave Junction,Oregon,97523,United States,1-541-592-3556,
1366,William Kuether Brewing,,Clear Lake,Wisconsin,,United States,,
1367,Williams Brothers Brewing Company,New Alloa Brewery,Alloa,Scotland,,United Kingdom,44-(01259)-725511,
1368,Willoughby Brewing,4057 Erie Street,Willoughby,Ohio,44094,United States,1-440-975-0202,
1369,Wilmington Brewing,,Wilmington,North Carolina,,United States,,
1370,Wisconsin Brewing,,Wauwatosa,Wisconsin,,United States,,
1371,Wolf Pack Brewing,111 South Canyon Street,West Yellowstone,Montana,59758,United States,1-406-646-7727,
1372,Wolf Tongue Brewery,35 E. First St.,Nederland,Colorado,,United States,,
1373,Woodforde's Norfolk Ales,Woodbastwick,Norwich,Norfolk,,United Kingdom,44-(01603)-720353,
1374,Wrzburger Hofbru AG,Hchberger Strae 28,Wrzburg,Bayern,,Germany,49-(0)931-/-4109-0,
1375,Wychwood Brewery,The Eagle Maltings,Witney,Oxford,,United Kingdom,44-(01993)-890800,
1376,Wychwood Brewery Company Ltd,,,,,United Kingdom,,
1377,Wyder's Cider,255999 Eighth Street SW,Calgary,Alberta,0,Canada,1-510-832-4540,
1378,Wye Valley Brewery,Stoke Lacy HR7 4HG,Stoke Lacy,Hereford and Worcester,,United Kingdom,44-(01885)-490505,
1379,Wynkoop Brewing,1634 18th Street,Denver,Colorado,80202,United States,1-303-297-2700,http://www.wynkoop.com/
1380,Yakima Brewing and Malting / Grant's Ales,,Yakima,Washington,,United States,,
1381,Yaletown Brewing,1111 Mainland Street,Vancouver,British Columbia,0,Canada,1-604-688-0039,
1382,Yamhill Brewing,,Portland,Oregon,,United States,,
1383,Yards Brewing,2439 Amber Street,Philadelphia,Pennsylvania,19125,United States,1-215-634-2600,
1384,Marshall Wharf Brewing Company,2 Pinchy Lane,Belfast,Maine,4915,United States,207-338-1707,http://www.marshallwharf.com
1385,Youngs & Company Brewery,26 Osiers Road,London,,SW18 1NH,England,020 8875 7000,http://www.youngs.co.uk
1386,Zea Rotisserie and Brewery,1525 St. Charles Avenue,New Orleans,Louisiana,70130,United States,,http://www.zearestaurants.com
1387,Yegua Creek Brewing - Dallas,2920 North Henderson Ave,Dallas,Texas,75206,United States,214-824-2739,
1388,Yuengling & Son Brewing,310 Mill Creek Avenue,Pottsville,Pennsylvania,17901,United States,570-622-0153,http://www.yuengling.com
1389,York Brewery,12 Toft Green,York,,YO1 6JT,England,01904 621162,http://www.york-brewery.co.uk
1390,Yellowstone Valley Brewing,2123 1st Avenue North,Billings,Montana,59101,United States,406-245-0918,http://www.yellowstonevalleybrew.com
1391,Yazoo Brewing,910 Division St,Nashville,Tennessee,37203,United States,615-891-4649,http://www.yazoobrew.com
1392,Yuksom Breweries,,Malli,Sikkim,,India,91 03595-70205,
1393,Baxter Brewing,,Lewiston,ME,,United States,,
1394,Aviator Brewing Company,209 Technology Park Lane,Fuquay Varina,North Carolina,27526,United States,(919)567-BEER,http://www.aviatorbrew.com/
1396,Aspen Brewing Company,555 North Mill Street,Aspen,Colorado,81611,United States,,http://aspenbrewingcompany.com
1397,Tallgrass Brewing Co.,8845 Quail Lane,Manhattan,KS,66502,United States,785-537-1131,http://www.tallgrassbeer.com
1398,Half Acre Beer Company,4257 North Lincoln Avenue,Chicago,IL,60618,United States,,http://inyourguts.blogspot.com/
1399,New Jersey Beer Company,4201 Tonnelle Avenue,North Bergen,NJ,7047,United States,,http://www.njbeerco.com
1400,FINNEGANS,619 10th St. South,Minneapolis,Minnesota,55404,United States,,http://www.finnegans.org
1401,Half Pints Brewing Company,550 Roseberry Street,Winnipeg,Manitoba,,Canada,,http://www.halfpintsbrewing.com
1402,Warwick Valley Wine Co.,114 Little York Rd,Warwick,NY,10990,United States,(845) 258-4858,http://www.wvwinery.com
1403,The Nook Brewhouse,,,,,United Kingdom,,
1404,The St. Louis Brewrey,2100 Locust Street,St. Louis,MO,63103,United States,314-241-2337,http://http://www.schlafly.com
1405,Baltika Breweries,"6 Verkhny per., d. 3",St. Petersburg,,194292,Russia,(812)325-93-25,http://baltikabeer.com/
1406,Baltika Breweries,"6 Verkhny per., d. 3",St. Petersburg,,194292,Russia,(812)325-93-25,http://baltikabeer.com/
1407,Catawba Valley Brewing Company,P.O. Box 1154,Glen Alpine,NC,28628,United States,828-430-6883,http://www.catawbavalleybrewingcompany.com/
1408,Walnut Brewery,1123 Walnut Street,Boulder,Colorado,80302,United States,(303) 447-1345,http://www.walnutbrewery.com/
1409,Columbus Brewing Company,525 Short St.,Columbus,OH,43215,United States,614-464-2739,www.columbusbrewingco.com
1410,Oso,1812 Post Road,Plover,WI,54467,United States,715-254-2163,http://www.osobrewing.com/Home.php
1411,Element Brewing Company,30 Bridge St,Millers Falls,MA,1349,United States,413-835-6340,http://www.elementbeer.com
1412,Cains,Robert Cain Brewery,Liverpool,Merseyside,L8 5XJ,United Kingdom,1517098734,http://www.cains.co.uk/
1413,Wedge Brewery,125B Roberts St,Asheville,NC,28801-3128,United States,828-505-2792,http://wedgebrewing.com/
1414,Black Creek Historic Brewery,Black Creek Pioneer Village,Toronto,Ontario,M3J 2P3,Canada,416 736-1733,http://www.blackcreekbrewery.ca/
1415,Hertog Jan,Kruisweg 44,Arcen,,5944 EN Arcen,Netherlands,,http://www.hertogjan.nl/site/
1416,Brewery Vivant,925 Cherry Street SE,Grand Rapids,MI,49506,United States,616 719 1604,http://breweryvivant.com
1417,Oakshire,,Eugene,Or,,United States,,
1418,Oakshire,,Eugene,Or,,United States,,
1422,Abhi Brewery,,,,,India,,
1423,Brasserie du Bouffay,54 Rue des Monceaux,Carquefou,,44470,France,,
